<?xml version="1.0" encoding="UTF-8"?>
<gpx creator="StravaGPX" version="1.1" xmlns="http://www.topografix.com/GPX/1/1" xmlns:xsi="http://www.w3.org/2001/XMLSchema-instance" xsi:schemaLocation="http://www.topografix.com/GPX/1/1 http://www.topografix.com/GPX/1/1/gpx.xsd">
 <metadata>
  <name>Marathon de Lille 2026 ⚜️🇫🇷</name>
  <author>
   <name>Abda Oubaha</name>
   <link href="https://www.strava.com/athletes/70914869"/>
  </author>
  <copyright author="OpenStreetMap contributors">
   <year>2020</year>
   <license>https://www.openstreetmap.org/copyright</license>
  </copyright>
  <link href="https://www.strava.com/routes/3534881282253069704"/>
 </metadata>
 <trk>
  <name>Marathon de Lille 2026 ⚜️🇫🇷</name>
  <link href="https://www.strava.com/routes/3534881282253069704"/>
  <type>running</type>
  <trkseg>
   <trkpt lat="50.629020000000004" lon="3.0667600000000004">
    <ele>26.44</ele>
   </trkpt>
   <trkpt lat="50.62865500183676" lon="3.067415005083609">
    <ele>26.820000000000004</ele>
   </trkpt>
   <trkpt lat="50.62829000000001" lon="3.06807">
    <ele>27.000000000000004</ele>
   </trkpt>
   <trkpt lat="50.62825" lon="3.0681800000000004">
    <ele>27.000000000000004</ele>
   </trkpt>
   <trkpt lat="50.628260000000004" lon="3.06942">
    <ele>26.72</ele>
   </trkpt>
   <trkpt lat="50.6283" lon="3.0698600000000003">
    <ele>26.390000000000004</ele>
   </trkpt>
   <trkpt lat="50.62848503478113" lon="3.071134974901662">
    <ele>26.560000000000002</ele>
   </trkpt>
   <trkpt lat="50.62867005564938" lon="3.072409959838578">
    <ele>27.06</ele>
   </trkpt>
   <trkpt lat="50.62885506260452" lon="3.07368495481014">
    <ele>27.35</ele>
   </trkpt>
   <trkpt lat="50.62904005564637" lon="3.0749599598157373">
    <ele>27.89</ele>
   </trkpt>
   <trkpt lat="50.62922503477471" lon="3.076234974854761">
    <ele>28.67</ele>
   </trkpt>
   <trkpt lat="50.62941000000001" lon="3.07751">
    <ele>29.57</ele>
   </trkpt>
   <trkpt lat="50.62950000000001" lon="3.0777300000000003">
    <ele>29.310000000000002</ele>
   </trkpt>
   <trkpt lat="50.629540000000006" lon="3.0777500000000004">
    <ele>29.32</ele>
   </trkpt>
   <trkpt lat="50.62955" lon="3.0777500000000004">
    <ele>29.330000000000002</ele>
   </trkpt>
   <trkpt lat="50.62971" lon="3.0777500000000004">
    <ele>29.78</ele>
   </trkpt>
   <trkpt lat="50.630487501914594" lon="3.077362519232372">
    <ele>28.96</ele>
   </trkpt>
   <trkpt lat="50.63126500254413" lon="3.0769750256480073">
    <ele>28.220000000000002</ele>
   </trkpt>
   <trkpt lat="50.632042501888556" lon="3.0765875192461514">
    <ele>27.82</ele>
   </trkpt>
   <trkpt lat="50.63282" lon="3.0762">
    <ele>27.770000000000003</ele>
   </trkpt>
   <trkpt lat="50.633140000000004" lon="3.0761000000000003">
    <ele>28.240000000000002</ele>
   </trkpt>
   <trkpt lat="50.63329" lon="3.07608">
    <ele>28.37</ele>
   </trkpt>
   <trkpt lat="50.63335500240605" lon="3.075330001049055">
    <ele>27.31</ele>
   </trkpt>
   <trkpt lat="50.63342" lon="3.07458">
    <ele>26.51</ele>
   </trkpt>
   <trkpt lat="50.63345" lon="3.0745500000000003">
    <ele>26.42</ele>
   </trkpt>
   <trkpt lat="50.633410000000005" lon="3.0743400000000003">
    <ele>26.42</ele>
   </trkpt>
   <trkpt lat="50.63336" lon="3.0742100000000003">
    <ele>26.98</ele>
   </trkpt>
   <trkpt lat="50.633136676027426" lon="3.0731633233168547">
    <ele>26.680000000000003</ele>
   </trkpt>
   <trkpt lat="50.63291334267886" lon="3.07211665657894">
    <ele>26.410000000000004</ele>
   </trkpt>
   <trkpt lat="50.632690000000004" lon="3.07107">
    <ele>26.650000000000002</ele>
   </trkpt>
   <trkpt lat="50.63270000000001" lon="3.0709000000000004">
    <ele>26.7</ele>
   </trkpt>
   <trkpt lat="50.63268000000001" lon="3.0707400000000002">
    <ele>26.770000000000003</ele>
   </trkpt>
   <trkpt lat="50.632650000000005" lon="3.0706200000000003">
    <ele>26.98</ele>
   </trkpt>
   <trkpt lat="50.63257" lon="3.0704900000000004">
    <ele>27.000000000000004</ele>
   </trkpt>
   <trkpt lat="50.632325005422096" lon="3.069364994164995">
    <ele>27.6</ele>
   </trkpt>
   <trkpt lat="50.63208" lon="3.0682400000000003">
    <ele>27.430000000000003</ele>
   </trkpt>
   <trkpt lat="50.63208" lon="3.0682500000000004">
    <ele>27.430000000000003</ele>
   </trkpt>
   <trkpt lat="50.63264" lon="3.0681000000000003">
    <ele>27.19</ele>
   </trkpt>
   <trkpt lat="50.63315500012678" lon="3.0680500005365112">
    <ele>27.01</ele>
   </trkpt>
   <trkpt lat="50.63367" lon="3.068">
    <ele>26.7</ele>
   </trkpt>
   <trkpt lat="50.63391000000001" lon="3.06794">
    <ele>26.53</ele>
   </trkpt>
   <trkpt lat="50.63443" lon="3.06775">
    <ele>25.67</ele>
   </trkpt>
   <trkpt lat="50.634710000000005" lon="3.0685700000000002">
    <ele>25.02</ele>
   </trkpt>
   <trkpt lat="50.6351" lon="3.0693900000000003">
    <ele>24.830000000000002</ele>
   </trkpt>
   <trkpt lat="50.635290000000005" lon="3.0697200000000002">
    <ele>24.98</ele>
   </trkpt>
   <trkpt lat="50.635690000000004" lon="3.0702900000000004">
    <ele>24.6</ele>
   </trkpt>
   <trkpt lat="50.635690000000004" lon="3.0703">
    <ele>24.6</ele>
   </trkpt>
   <trkpt lat="50.63595" lon="3.0698600000000003">
    <ele>24.17</ele>
   </trkpt>
   <trkpt lat="50.636210000000005" lon="3.0695200000000002">
    <ele>24.270000000000003</ele>
   </trkpt>
   <trkpt lat="50.63638" lon="3.06942">
    <ele>24.62</ele>
   </trkpt>
   <trkpt lat="50.636480000000006" lon="3.0693900000000003">
    <ele>24.62</ele>
   </trkpt>
   <trkpt lat="50.636610000000005" lon="3.0694000000000004">
    <ele>24.43</ele>
   </trkpt>
   <trkpt lat="50.63674251414865" lon="3.0683500089160662">
    <ele>24.16</ele>
   </trkpt>
   <trkpt lat="50.63687501886191" lon="3.0673000119117555">
    <ele>23.75</ele>
   </trkpt>
   <trkpt lat="50.6370075141397" lon="3.066250008987429">
    <ele>24.060000000000002</ele>
   </trkpt>
   <trkpt lat="50.63714" lon="3.0652000000000004">
    <ele>24.23</ele>
   </trkpt>
   <trkpt lat="50.63714" lon="3.0651900000000003">
    <ele>24.220000000000002</ele>
   </trkpt>
   <trkpt lat="50.637060000000005" lon="3.06497">
    <ele>24.150000000000002</ele>
   </trkpt>
   <trkpt lat="50.63669" lon="3.06416">
    <ele>24.19</ele>
   </trkpt>
   <trkpt lat="50.636750000000006" lon="3.0639200000000004">
    <ele>23.930000000000003</ele>
   </trkpt>
   <trkpt lat="50.63725" lon="3.0633500000000002">
    <ele>23.610000000000003</ele>
   </trkpt>
   <trkpt lat="50.637280000000004" lon="3.0632500000000005">
    <ele>23.64</ele>
   </trkpt>
   <trkpt lat="50.637280000000004" lon="3.0632400000000004">
    <ele>23.64</ele>
   </trkpt>
   <trkpt lat="50.637260000000005" lon="3.0631000000000004">
    <ele>23.64</ele>
   </trkpt>
   <trkpt lat="50.63681169048282" lon="3.062044949688275">
    <ele>23.07</ele>
   </trkpt>
   <trkpt lat="50.63636337143932" lon="3.060989919503052">
    <ele>22.930000000000003</ele>
   </trkpt>
   <trkpt lat="50.63591504286989" lon="3.0599349094440558">
    <ele>23.07</ele>
   </trkpt>
   <trkpt lat="50.63546670477483" lon="3.058879919511008">
    <ele>22.98</ele>
   </trkpt>
   <trkpt lat="50.6350183571545" lon="3.057824949703631">
    <ele>22.990000000000002</ele>
   </trkpt>
   <trkpt lat="50.634570000000004" lon="3.05677">
    <ele>23.51</ele>
   </trkpt>
   <trkpt lat="50.63468" lon="3.0565700000000002">
    <ele>23.46</ele>
   </trkpt>
   <trkpt lat="50.635204015317356" lon="3.0556240421847853">
    <ele>23.470000000000002</ele>
   </trkpt>
   <trkpt lat="50.635728022976224" lon="3.054678063277982">
    <ele>23.4</ele>
   </trkpt>
   <trkpt lat="50.63625202297626" lon="3.053732063279034">
    <ele>23.500000000000004</ele>
   </trkpt>
   <trkpt lat="50.63677601531715" lon="3.0527860421873867">
    <ele>23.46</ele>
   </trkpt>
   <trkpt lat="50.6373" lon="3.0518400000000003">
    <ele>23.790000000000003</ele>
   </trkpt>
   <trkpt lat="50.63739" lon="3.0516300000000003">
    <ele>23.290000000000003</ele>
   </trkpt>
   <trkpt lat="50.63739" lon="3.05162">
    <ele>23.270000000000003</ele>
   </trkpt>
   <trkpt lat="50.63668500658042" lon="3.050904967844283">
    <ele>22.37</ele>
   </trkpt>
   <trkpt lat="50.635980008785374" lon="3.050189957138217">
    <ele>22.0</ele>
   </trkpt>
   <trkpt lat="50.63527500661511" lon="3.049474967880754">
    <ele>21.92</ele>
   </trkpt>
   <trkpt lat="50.634570000000004" lon="3.04876">
    <ele>22.01</ele>
   </trkpt>
   <trkpt lat="50.63461" lon="3.04863">
    <ele>21.96</ele>
   </trkpt>
   <trkpt lat="50.634530000000005" lon="3.0485300000000004">
    <ele>21.93</ele>
   </trkpt>
   <trkpt lat="50.634660000000004" lon="3.04827">
    <ele>21.7</ele>
   </trkpt>
   <trkpt lat="50.634910000000005" lon="3.0477900000000004">
    <ele>21.560000000000002</ele>
   </trkpt>
   <trkpt lat="50.635280001873454" lon="3.047105005640996">
    <ele>21.640000000000004</ele>
   </trkpt>
   <trkpt lat="50.635650000000005" lon="3.0464200000000003">
    <ele>21.800000000000004</ele>
   </trkpt>
   <trkpt lat="50.6362" lon="3.0453200000000002">
    <ele>22.080000000000002</ele>
   </trkpt>
   <trkpt lat="50.6362" lon="3.0452700000000004">
    <ele>22.080000000000002</ele>
   </trkpt>
   <trkpt lat="50.63645" lon="3.0447300000000004">
    <ele>21.67</ele>
   </trkpt>
   <trkpt lat="50.63645" lon="3.0447100000000002">
    <ele>21.66</ele>
   </trkpt>
   <trkpt lat="50.636430000000004" lon="3.0443700000000002">
    <ele>21.43</ele>
   </trkpt>
   <trkpt lat="50.63629500239197" lon="3.0436199977622658">
    <ele>21.51</ele>
   </trkpt>
   <trkpt lat="50.636160000000004" lon="3.04287">
    <ele>21.560000000000002</ele>
   </trkpt>
   <trkpt lat="50.63599500245138" lon="3.0421049970692726">
    <ele>22.05</ele>
   </trkpt>
   <trkpt lat="50.635830000000006" lon="3.0413400000000004">
    <ele>22.38</ele>
   </trkpt>
   <trkpt lat="50.635740000000006" lon="3.0409800000000002">
    <ele>22.56</ele>
   </trkpt>
   <trkpt lat="50.63528" lon="3.04043">
    <ele>22.650000000000002</ele>
   </trkpt>
   <trkpt lat="50.634980000000006" lon="3.0401200000000004">
    <ele>22.580000000000002</ele>
   </trkpt>
   <trkpt lat="50.634710000000005" lon="3.03975">
    <ele>22.39</ele>
   </trkpt>
   <trkpt lat="50.63404667110673" lon="3.0390266462107176">
    <ele>22.080000000000002</ele>
   </trkpt>
   <trkpt lat="50.63338333773548" lon="3.0383033128364176">
    <ele>22.13</ele>
   </trkpt>
   <trkpt lat="50.632720000000006" lon="3.03758">
    <ele>22.18</ele>
   </trkpt>
   <trkpt lat="50.632200000000005" lon="3.0370600000000003">
    <ele>22.12</ele>
   </trkpt>
   <trkpt lat="50.631820000000005" lon="3.03661">
    <ele>22.36</ele>
   </trkpt>
   <trkpt lat="50.631750000000004" lon="3.0367100000000002">
    <ele>22.53</ele>
   </trkpt>
   <trkpt lat="50.631640000000004" lon="3.0365900000000003">
    <ele>22.63</ele>
   </trkpt>
   <trkpt lat="50.63125500079112" lon="3.036169996599928">
    <ele>22.62</ele>
   </trkpt>
   <trkpt lat="50.63087" lon="3.03575">
    <ele>22.400000000000002</ele>
   </trkpt>
   <trkpt lat="50.63047" lon="3.0352900000000003">
    <ele>22.69</ele>
   </trkpt>
   <trkpt lat="50.63047" lon="3.0353100000000004">
    <ele>22.72</ele>
   </trkpt>
   <trkpt lat="50.630410000000005" lon="3.0352300000000003">
    <ele>22.740000000000002</ele>
   </trkpt>
   <trkpt lat="50.63038" lon="3.0352300000000003">
    <ele>22.740000000000002</ele>
   </trkpt>
   <trkpt lat="50.63024000000001" lon="3.03541">
    <ele>22.830000000000002</ele>
   </trkpt>
   <trkpt lat="50.6302" lon="3.03535">
    <ele>22.500000000000004</ele>
   </trkpt>
   <trkpt lat="50.62991" lon="3.03568">
    <ele>22.340000000000003</ele>
   </trkpt>
   <trkpt lat="50.629290000000005" lon="3.0364400000000002">
    <ele>22.400000000000002</ele>
   </trkpt>
   <trkpt lat="50.62874000595695" lon="3.037120023839089">
    <ele>22.44</ele>
   </trkpt>
   <trkpt lat="50.628190007956185" lon="3.0378000317681644">
    <ele>22.490000000000002</ele>
   </trkpt>
   <trkpt lat="50.62764000599784" lon="3.038480023787794">
    <ele>22.520000000000003</ele>
   </trkpt>
   <trkpt lat="50.62709" lon="3.0391600000000003">
    <ele>22.76</ele>
   </trkpt>
   <trkpt lat="50.626665001295365" lon="3.0397050048951177">
    <ele>22.62</ele>
   </trkpt>
   <trkpt lat="50.62624" lon="3.0402500000000003">
    <ele>23.080000000000002</ele>
   </trkpt>
   <trkpt lat="50.62621000000001" lon="3.0403100000000003">
    <ele>23.110000000000003</ele>
   </trkpt>
   <trkpt lat="50.62641000000001" lon="3.0405">
    <ele>23.160000000000004</ele>
   </trkpt>
   <trkpt lat="50.62661000000001" lon="3.04076">
    <ele>23.21</ele>
   </trkpt>
   <trkpt lat="50.62714500138172" lon="3.041299993990624">
    <ele>23.32</ele>
   </trkpt>
   <trkpt lat="50.627680000000005" lon="3.04184">
    <ele>23.330000000000002</ele>
   </trkpt>
   <trkpt lat="50.62771000000001" lon="3.0419">
    <ele>23.330000000000002</ele>
   </trkpt>
   <trkpt lat="50.62774" lon="3.0422200000000004">
    <ele>23.44</ele>
   </trkpt>
   <trkpt lat="50.627810000000004" lon="3.0424">
    <ele>23.44</ele>
   </trkpt>
   <trkpt lat="50.62832000112411" lon="3.0429249942480836">
    <ele>23.4</ele>
   </trkpt>
   <trkpt lat="50.62883" lon="3.0434500000000004">
    <ele>23.24</ele>
   </trkpt>
   <trkpt lat="50.62895" lon="3.04362">
    <ele>23.14</ele>
   </trkpt>
   <trkpt lat="50.62906" lon="3.0434400000000004">
    <ele>23.05</ele>
   </trkpt>
   <trkpt lat="50.6291" lon="3.0434900000000003">
    <ele>23.05</ele>
   </trkpt>
   <trkpt lat="50.62912000000001" lon="3.0434500000000004">
    <ele>22.990000000000002</ele>
   </trkpt>
   <trkpt lat="50.62975500178675" lon="3.044099991198819">
    <ele>22.480000000000004</ele>
   </trkpt>
   <trkpt lat="50.630390000000006" lon="3.04475">
    <ele>22.02</ele>
   </trkpt>
   <trkpt lat="50.63045" lon="3.04483">
    <ele>21.92</ele>
   </trkpt>
   <trkpt lat="50.630480000000006" lon="3.0448500000000003">
    <ele>21.92</ele>
   </trkpt>
   <trkpt lat="50.63073000000001" lon="3.0450800000000005">
    <ele>22.11</ele>
   </trkpt>
   <trkpt lat="50.63128500158574" lon="3.045664993221425">
    <ele>22.2</ele>
   </trkpt>
   <trkpt lat="50.631840000000004" lon="3.04625">
    <ele>22.22</ele>
   </trkpt>
   <trkpt lat="50.63249000188545" lon="3.0468999910898042">
    <ele>22.09</ele>
   </trkpt>
   <trkpt lat="50.633140000000004" lon="3.04755">
    <ele>22.19</ele>
   </trkpt>
   <trkpt lat="50.6332" lon="3.04747">
    <ele>22.250000000000004</ele>
   </trkpt>
   <trkpt lat="50.63377000139638" lon="3.048054992836466">
    <ele>22.29</ele>
   </trkpt>
   <trkpt lat="50.63434" lon="3.0486400000000002">
    <ele>22.42</ele>
   </trkpt>
   <trkpt lat="50.63434" lon="3.0486500000000003">
    <ele>22.430000000000003</ele>
   </trkpt>
   <trkpt lat="50.63443" lon="3.0487400000000004">
    <ele>22.35</ele>
   </trkpt>
   <trkpt lat="50.63441" lon="3.0489100000000002">
    <ele>22.430000000000003</ele>
   </trkpt>
   <trkpt lat="50.634045001843425" lon="3.049580005344758">
    <ele>22.56</ele>
   </trkpt>
   <trkpt lat="50.633680000000005" lon="3.05025">
    <ele>22.6</ele>
   </trkpt>
   <trkpt lat="50.63319500384155" lon="3.051195009710867">
    <ele>22.63</ele>
   </trkpt>
   <trkpt lat="50.63271" lon="3.05214">
    <ele>22.750000000000004</ele>
   </trkpt>
   <trkpt lat="50.63259000000001" lon="3.0523000000000002">
    <ele>23.000000000000004</ele>
   </trkpt>
   <trkpt lat="50.6320725123892" lon="3.053282532453446">
    <ele>23.160000000000004</ele>
   </trkpt>
   <trkpt lat="50.6315550165164" lon="3.0542650432752723">
    <ele>23.330000000000002</ele>
   </trkpt>
   <trkpt lat="50.63103751238196" lon="3.055247532466009">
    <ele>23.82</ele>
   </trkpt>
   <trkpt lat="50.630520000000004" lon="3.0562300000000002">
    <ele>24.42</ele>
   </trkpt>
   <trkpt lat="50.630250000000004" lon="3.0568000000000004">
    <ele>24.89</ele>
   </trkpt>
   <trkpt lat="50.62985333815849" lon="3.057546679165532">
    <ele>24.78</ele>
   </trkpt>
   <trkpt lat="50.62945667154535" lon="3.058293345731295">
    <ele>25.14</ele>
   </trkpt>
   <trkpt lat="50.62906" lon="3.0590400000000004">
    <ele>24.900000000000002</ele>
   </trkpt>
   <trkpt lat="50.629020000000004" lon="3.0589700000000004">
    <ele>24.92</ele>
   </trkpt>
   <trkpt lat="50.628440000000005" lon="3.0582300000000004">
    <ele>25.19</ele>
   </trkpt>
   <trkpt lat="50.62772000876526" lon="3.0576456606007922">
    <ele>25.57</ele>
   </trkpt>
   <trkpt lat="50.6270000146082" lon="3.057061339097866">
    <ele>25.94</ele>
   </trkpt>
   <trkpt lat="50.62628001752895" lon="3.056477035490287">
    <ele>25.87</ele>
   </trkpt>
   <trkpt lat="50.6255600175277" lon="3.055892749777122">
    <ele>25.66</ele>
   </trkpt>
   <trkpt lat="50.62484001460461" lon="3.0553084819574363">
    <ele>25.970000000000002</ele>
   </trkpt>
   <trkpt lat="50.624120008759846" lon="3.054724232030296">
    <ele>26.26</ele>
   </trkpt>
   <trkpt lat="50.623400000000004" lon="3.0541400000000003">
    <ele>26.55</ele>
   </trkpt>
   <trkpt lat="50.623250000000006" lon="3.0539600000000005">
    <ele>26.560000000000002</ele>
   </trkpt>
   <trkpt lat="50.62319" lon="3.05376">
    <ele>26.520000000000003</ele>
   </trkpt>
   <trkpt lat="50.62314000000001" lon="3.0536700000000003">
    <ele>26.520000000000003</ele>
   </trkpt>
   <trkpt lat="50.62306" lon="3.05363">
    <ele>26.520000000000003</ele>
   </trkpt>
   <trkpt lat="50.622980000000005" lon="3.0536600000000003">
    <ele>26.730000000000004</ele>
   </trkpt>
   <trkpt lat="50.622870000000006" lon="3.05365">
    <ele>26.730000000000004</ele>
   </trkpt>
   <trkpt lat="50.62265000000001" lon="3.0535300000000003">
    <ele>26.87</ele>
   </trkpt>
   <trkpt lat="50.622640000000004" lon="3.0535300000000003">
    <ele>26.87</ele>
   </trkpt>
   <trkpt lat="50.62187000666081" lon="3.0529059591278354">
    <ele>27.46</ele>
   </trkpt>
   <trkpt lat="50.62110000998854" lon="3.0522819386909044">
    <ele>27.89</ele>
   </trkpt>
   <trkpt lat="50.62033000998343" lon="3.051657938688066">
    <ele>28.470000000000002</ele>
   </trkpt>
   <trkpt lat="50.61956000664567" lon="3.05103395911818">
    <ele>28.950000000000003</ele>
   </trkpt>
   <trkpt lat="50.618790000000004" lon="3.0504100000000003">
    <ele>29.710000000000004</ele>
   </trkpt>
   <trkpt lat="50.618730000000006" lon="3.0505600000000004">
    <ele>29.740000000000002</ele>
   </trkpt>
   <trkpt lat="50.61865" lon="3.0506800000000003">
    <ele>29.730000000000004</ele>
   </trkpt>
   <trkpt lat="50.61862000000001" lon="3.0506800000000003">
    <ele>29.730000000000004</ele>
   </trkpt>
   <trkpt lat="50.618570000000005" lon="3.05071">
    <ele>29.7</ele>
   </trkpt>
   <trkpt lat="50.61874" lon="3.05113">
    <ele>29.17</ele>
   </trkpt>
   <trkpt lat="50.61899000240697" lon="3.0518649963723283">
    <ele>28.85</ele>
   </trkpt>
   <trkpt lat="50.619240000000005" lon="3.0526000000000004">
    <ele>28.78</ele>
   </trkpt>
   <trkpt lat="50.61963468568103" lon="3.0537698821883255">
    <ele>28.78</ele>
   </trkpt>
   <trkpt lat="50.62002935964742" lon="3.0549397840121477">
    <ele>28.39</ele>
   </trkpt>
   <trkpt lat="50.620424021898785" lon="3.056109705471491">
    <ele>27.930000000000003</ele>
   </trkpt>
   <trkpt lat="50.62081867243481" lon="3.0572796465663776">
    <ele>28.330000000000002</ele>
   </trkpt>
   <trkpt lat="50.62121331125508" lon="3.05844960729683">
    <ele>28.96</ele>
   </trkpt>
   <trkpt lat="50.62160793835929" lon="3.0596195876628705">
    <ele>28.830000000000002</ele>
   </trkpt>
   <trkpt lat="50.62200255374704" lon="3.060789587664521">
    <ele>29.040000000000003</ele>
   </trkpt>
   <trkpt lat="50.622397157417986" lon="3.0619596073018043">
    <ele>28.98</ele>
   </trkpt>
   <trkpt lat="50.622791749371764" lon="3.0631296465747417">
    <ele>28.34</ele>
   </trkpt>
   <trkpt lat="50.623186329608" lon="3.064299705483357">
    <ele>27.73</ele>
   </trkpt>
   <trkpt lat="50.62358089812634" lon="3.065469784027672">
    <ele>27.090000000000003</ele>
   </trkpt>
   <trkpt lat="50.62397545492646" lon="3.0666398822077072">
    <ele>26.53</ele>
   </trkpt>
   <trkpt lat="50.624370000000006" lon="3.06781">
    <ele>26.430000000000003</ele>
   </trkpt>
   <trkpt lat="50.624320000000004" lon="3.0679100000000004">
    <ele>26.44</ele>
   </trkpt>
   <trkpt lat="50.62424000000001" lon="3.0679900000000004">
    <ele>26.490000000000002</ele>
   </trkpt>
   <trkpt lat="50.624140000000004" lon="3.0682">
    <ele>26.560000000000002</ele>
   </trkpt>
   <trkpt lat="50.62338000064221" lon="3.0677899933319797">
    <ele>26.47</ele>
   </trkpt>
   <trkpt lat="50.622620000000005" lon="3.0673800000000004">
    <ele>26.97</ele>
   </trkpt>
   <trkpt lat="50.62247000000001" lon="3.0672800000000002">
    <ele>26.97</ele>
   </trkpt>
   <trkpt lat="50.62200000069954" lon="3.066899996268078">
    <ele>27.160000000000004</ele>
   </trkpt>
   <trkpt lat="50.62153000000001" lon="3.06652">
    <ele>27.560000000000002</ele>
   </trkpt>
   <trkpt lat="50.62096666884481" lon="3.066019988055399">
    <ele>27.790000000000003</ele>
   </trkpt>
   <trkpt lat="50.62040333554974" lon="3.06551998808955">
    <ele>28.76</ele>
   </trkpt>
   <trkpt lat="50.61984" lon="3.06502">
    <ele>29.0</ele>
   </trkpt>
   <trkpt lat="50.619580000000006" lon="3.0648000000000004">
    <ele>29.23</ele>
   </trkpt>
   <trkpt lat="50.61917000049669" lon="3.0644749972021588">
    <ele>29.400000000000002</ele>
   </trkpt>
   <trkpt lat="50.61876" lon="3.06415">
    <ele>29.880000000000003</ele>
   </trkpt>
   <trkpt lat="50.61844000000001" lon="3.06394">
    <ele>30.01</ele>
   </trkpt>
   <trkpt lat="50.617900000000006" lon="3.0636400000000004">
    <ele>30.18</ele>
   </trkpt>
   <trkpt lat="50.61769" lon="3.06355">
    <ele>30.21</ele>
   </trkpt>
   <trkpt lat="50.61769" lon="3.0637000000000003">
    <ele>30.150000000000002</ele>
   </trkpt>
   <trkpt lat="50.617490000000004" lon="3.0637100000000004">
    <ele>30.140000000000004</ele>
   </trkpt>
   <trkpt lat="50.617450000000005" lon="3.0635800000000004">
    <ele>30.27</ele>
   </trkpt>
   <trkpt lat="50.61741000000001" lon="3.06354">
    <ele>30.27</ele>
   </trkpt>
   <trkpt lat="50.61677" lon="3.0632300000000003">
    <ele>32.03</ele>
   </trkpt>
   <trkpt lat="50.616730000000004" lon="3.0631000000000004">
    <ele>32.43</ele>
   </trkpt>
   <trkpt lat="50.61614" lon="3.0628200000000003">
    <ele>33.870000000000005</ele>
   </trkpt>
   <trkpt lat="50.61596" lon="3.0627600000000004">
    <ele>34.14</ele>
   </trkpt>
   <trkpt lat="50.61591000000001" lon="3.0629100000000005">
    <ele>33.81</ele>
   </trkpt>
   <trkpt lat="50.61582000000001" lon="3.0628300000000004">
    <ele>34.21</ele>
   </trkpt>
   <trkpt lat="50.61549" lon="3.0627600000000004">
    <ele>34.53</ele>
   </trkpt>
   <trkpt lat="50.615260000000006" lon="3.0627500000000003">
    <ele>34.25</ele>
   </trkpt>
   <trkpt lat="50.61509" lon="3.0628300000000004">
    <ele>34.1</ele>
   </trkpt>
   <trkpt lat="50.61458499976825" lon="3.0628149998320504">
    <ele>32.56</ele>
   </trkpt>
   <trkpt lat="50.61408" lon="3.0628">
    <ele>31.700000000000006</ele>
   </trkpt>
   <trkpt lat="50.61406" lon="3.0625400000000003">
    <ele>31.970000000000006</ele>
   </trkpt>
   <trkpt lat="50.613960000000006" lon="3.0625400000000003">
    <ele>32.21</ele>
   </trkpt>
   <trkpt lat="50.613710000000005" lon="3.06253">
    <ele>32.11</ele>
   </trkpt>
   <trkpt lat="50.61357" lon="3.0625000000000004">
    <ele>32.010000000000005</ele>
   </trkpt>
   <trkpt lat="50.613220000000005" lon="3.06231">
    <ele>31.84</ele>
   </trkpt>
   <trkpt lat="50.612750000000005" lon="3.06205">
    <ele>32.0</ele>
   </trkpt>
   <trkpt lat="50.61260000000001" lon="3.0619500000000004">
    <ele>31.970000000000006</ele>
   </trkpt>
   <trkpt lat="50.611900000000006" lon="3.06156">
    <ele>32.56</ele>
   </trkpt>
   <trkpt lat="50.61105500077502" lon="3.0611199920689987">
    <ele>33.39</ele>
   </trkpt>
   <trkpt lat="50.61021" lon="3.06068">
    <ele>34.120000000000005</ele>
   </trkpt>
   <trkpt lat="50.61005" lon="3.0606000000000004">
    <ele>34.4</ele>
   </trkpt>
   <trkpt lat="50.609790000000004" lon="3.0605">
    <ele>34.550000000000004</ele>
   </trkpt>
   <trkpt lat="50.60905500064203" lon="3.0601149939894117">
    <ele>35.03000000000001</ele>
   </trkpt>
   <trkpt lat="50.608320000000006" lon="3.05973">
    <ele>35.440000000000005</ele>
   </trkpt>
   <trkpt lat="50.607710000948295" lon="3.0593933245915967">
    <ele>35.82000000000001</ele>
   </trkpt>
   <trkpt lat="50.60710000092633" lon="3.0590566579129517">
    <ele>36.42</ele>
   </trkpt>
   <trkpt lat="50.60649" lon="3.05872">
    <ele>36.67</ele>
   </trkpt>
   <trkpt lat="50.605940000000004" lon="3.0583400000000003">
    <ele>37.88</ele>
   </trkpt>
   <trkpt lat="50.605302004674975" lon="3.057817971697624">
    <ele>38.53</ele>
   </trkpt>
   <trkpt lat="50.60466400701725" lon="3.0572959575511045">
    <ele>38.92</ele>
   </trkpt>
   <trkpt lat="50.60402600702694" lon="3.056773957559789">
    <ele>40.07</ele>
   </trkpt>
   <trkpt lat="50.60338800470418" lon="3.056251971723023">
    <ele>40.78</ele>
   </trkpt>
   <trkpt lat="50.60275000000001" lon="3.05573">
    <ele>41.36</ele>
   </trkpt>
   <trkpt lat="50.602330000556734" lon="3.0554049971803776">
    <ele>41.690000000000005</ele>
   </trkpt>
   <trkpt lat="50.601910000000004" lon="3.0550800000000002">
    <ele>42.04</ele>
   </trkpt>
   <trkpt lat="50.601800000000004" lon="3.0549600000000003">
    <ele>42.18</ele>
   </trkpt>
   <trkpt lat="50.601400000000005" lon="3.0546200000000003">
    <ele>42.52</ele>
   </trkpt>
   <trkpt lat="50.60118000000001" lon="3.05446">
    <ele>42.620000000000005</ele>
   </trkpt>
   <trkpt lat="50.600820000000006" lon="3.05425">
    <ele>42.85000000000001</ele>
   </trkpt>
   <trkpt lat="50.6001900011327" lon="3.0537699936862164">
    <ele>43.86</ele>
   </trkpt>
   <trkpt lat="50.599560000000004" lon="3.05329">
    <ele>45.03</ele>
   </trkpt>
   <trkpt lat="50.59957000000001" lon="3.0533">
    <ele>45.03</ele>
   </trkpt>
   <trkpt lat="50.59980500245732" lon="3.0525500035863664">
    <ele>44.51</ele>
   </trkpt>
   <trkpt lat="50.60004000000001" lon="3.0518">
    <ele>44.47</ele>
   </trkpt>
   <trkpt lat="50.60018" lon="3.05107">
    <ele>44.43000000000001</ele>
   </trkpt>
   <trkpt lat="50.60027" lon="3.0503400000000003">
    <ele>44.54</ele>
   </trkpt>
   <trkpt lat="50.60031000000001" lon="3.0494100000000004">
    <ele>44.74</ele>
   </trkpt>
   <trkpt lat="50.60036500212436" lon="3.0487050008624927">
    <ele>44.9</ele>
   </trkpt>
   <trkpt lat="50.60042000000001" lon="3.048">
    <ele>44.75000000000001</ele>
   </trkpt>
   <trkpt lat="50.60043" lon="3.0471600000000003">
    <ele>43.78000000000001</ele>
   </trkpt>
   <trkpt lat="50.600460000000005" lon="3.0468200000000003">
    <ele>43.78000000000001</ele>
   </trkpt>
   <trkpt lat="50.60054" lon="3.0463600000000004">
    <ele>43.45</ele>
   </trkpt>
   <trkpt lat="50.60074000175742" lon="3.0457050030419417">
    <ele>43.04</ele>
   </trkpt>
   <trkpt lat="50.60094" lon="3.0450500000000003">
    <ele>42.36</ele>
   </trkpt>
   <trkpt lat="50.60128" lon="3.04382">
    <ele>41.45</ele>
   </trkpt>
   <trkpt lat="50.601445003406084" lon="3.042930003035467">
    <ele>40.67</ele>
   </trkpt>
   <trkpt lat="50.60161" lon="3.04204">
    <ele>40.370000000000005</ele>
   </trkpt>
   <trkpt lat="50.60165000000001" lon="3.0416200000000004">
    <ele>40.370000000000005</ele>
   </trkpt>
   <trkpt lat="50.60165000000001" lon="3.04082">
    <ele>40.24</ele>
   </trkpt>
   <trkpt lat="50.601620000000004" lon="3.0403800000000003">
    <ele>40.35</ele>
   </trkpt>
   <trkpt lat="50.60168" lon="3.0397100000000004">
    <ele>40.6</ele>
   </trkpt>
   <trkpt lat="50.60182667779355" lon="3.038570007091235">
    <ele>40.49</ele>
   </trkpt>
   <trkpt lat="50.60197334446214" lon="3.0374300070764333">
    <ele>40.43</ele>
   </trkpt>
   <trkpt lat="50.602120000000006" lon="3.03629">
    <ele>40.53</ele>
   </trkpt>
   <trkpt lat="50.60222" lon="3.03535">
    <ele>40.330000000000005</ele>
   </trkpt>
   <trkpt lat="50.602180000000004" lon="3.03526">
    <ele>40.160000000000004</ele>
   </trkpt>
   <trkpt lat="50.60229500411083" lon="3.0342800023934653">
    <ele>39.35</ele>
   </trkpt>
   <trkpt lat="50.602410000000006" lon="3.0333">
    <ele>38.63</ele>
   </trkpt>
   <trkpt lat="50.60257000000001" lon="3.03215">
    <ele>37.64</ele>
   </trkpt>
   <trkpt lat="50.602700000000006" lon="3.03167">
    <ele>37.230000000000004</ele>
   </trkpt>
   <trkpt lat="50.602850000000004" lon="3.0312200000000002">
    <ele>36.59</ele>
   </trkpt>
   <trkpt lat="50.603200003678694" lon="3.0302950068362384">
    <ele>34.89</ele>
   </trkpt>
   <trkpt lat="50.603550000000006" lon="3.02937">
    <ele>34.480000000000004</ele>
   </trkpt>
   <trkpt lat="50.6037" lon="3.0287400000000004">
    <ele>33.93</ele>
   </trkpt>
   <trkpt lat="50.60371000000001" lon="3.02857">
    <ele>33.82</ele>
   </trkpt>
   <trkpt lat="50.603790000000004" lon="3.02857">
    <ele>33.79</ele>
   </trkpt>
   <trkpt lat="50.60387000000001" lon="3.0282500000000003">
    <ele>33.800000000000004</ele>
   </trkpt>
   <trkpt lat="50.603820000000006" lon="3.02814">
    <ele>33.800000000000004</ele>
   </trkpt>
   <trkpt lat="50.60378000000001" lon="3.0280000000000005">
    <ele>33.800000000000004</ele>
   </trkpt>
   <trkpt lat="50.60378000000001" lon="3.0278600000000004">
    <ele>33.71</ele>
   </trkpt>
   <trkpt lat="50.603950000000005" lon="3.02761">
    <ele>33.64</ele>
   </trkpt>
   <trkpt lat="50.603570000000005" lon="3.02712">
    <ele>34.71</ele>
   </trkpt>
   <trkpt lat="50.60302000421499" lon="3.026416650200999">
    <ele>37.2</ele>
   </trkpt>
   <trkpt lat="50.6024700041953" lon="3.025713316842753">
    <ele>39.540000000000006</ele>
   </trkpt>
   <trkpt lat="50.60192000000001" lon="3.0250100000000004">
    <ele>41.050000000000004</ele>
   </trkpt>
   <trkpt lat="50.60174000000001" lon="3.02489">
    <ele>41.09</ele>
   </trkpt>
   <trkpt lat="50.60133500130909" lon="3.0243499954341337">
    <ele>41.49</ele>
   </trkpt>
   <trkpt lat="50.600930000000005" lon="3.02381">
    <ele>41.760000000000005</ele>
   </trkpt>
   <trkpt lat="50.60085" lon="3.02367">
    <ele>41.760000000000005</ele>
   </trkpt>
   <trkpt lat="50.600770000000004" lon="3.02347">
    <ele>41.68</ele>
   </trkpt>
   <trkpt lat="50.600500000000004" lon="3.0231500000000002">
    <ele>41.02</ele>
   </trkpt>
   <trkpt lat="50.60024000000001" lon="3.0228900000000003">
    <ele>39.760000000000005</ele>
   </trkpt>
   <trkpt lat="50.600060000000006" lon="3.02266">
    <ele>39.260000000000005</ele>
   </trkpt>
   <trkpt lat="50.59974000113453" lon="3.0221449964972584">
    <ele>37.63</ele>
   </trkpt>
   <trkpt lat="50.59942" lon="3.02163">
    <ele>35.51</ele>
   </trkpt>
   <trkpt lat="50.59928000000001" lon="3.0213500000000004">
    <ele>34.260000000000005</ele>
   </trkpt>
   <trkpt lat="50.599120000000006" lon="3.0209300000000003">
    <ele>32.59</ele>
   </trkpt>
   <trkpt lat="50.59901000000001" lon="3.0205100000000003">
    <ele>31.87</ele>
   </trkpt>
   <trkpt lat="50.598940000000006" lon="3.0200400000000003">
    <ele>30.430000000000003</ele>
   </trkpt>
   <trkpt lat="50.598910000000004" lon="3.01953">
    <ele>29.800000000000004</ele>
   </trkpt>
   <trkpt lat="50.59893" lon="3.0190900000000003">
    <ele>29.730000000000004</ele>
   </trkpt>
   <trkpt lat="50.59901000000001" lon="3.0185400000000002">
    <ele>29.86</ele>
   </trkpt>
   <trkpt lat="50.599180000000004" lon="3.0179400000000003">
    <ele>30.130000000000003</ele>
   </trkpt>
   <trkpt lat="50.59957251251462" lon="3.0169525247240654">
    <ele>30.7</ele>
   </trkpt>
   <trkpt lat="50.59996501668172" lon="3.015965032977133">
    <ele>31.12</ele>
   </trkpt>
   <trkpt lat="50.600357512501034" lon="3.0149775247590482">
    <ele>31.560000000000006</ele>
   </trkpt>
   <trkpt lat="50.600750000000005" lon="3.01399">
    <ele>31.880000000000006</ele>
   </trkpt>
   <trkpt lat="50.60087000000001" lon="3.01363">
    <ele>32.080000000000005</ele>
   </trkpt>
   <trkpt lat="50.60098000000001" lon="3.0131200000000002">
    <ele>32.18</ele>
   </trkpt>
   <trkpt lat="50.601040000000005" lon="3.0125300000000004">
    <ele>32.61</ele>
   </trkpt>
   <trkpt lat="50.601040000000005" lon="3.01209">
    <ele>32.95</ele>
   </trkpt>
   <trkpt lat="50.601000000000006" lon="3.01155">
    <ele>32.99</ele>
   </trkpt>
   <trkpt lat="50.600930000000005" lon="3.0111600000000003">
    <ele>33.160000000000004</ele>
   </trkpt>
   <trkpt lat="50.60085" lon="3.0109100000000004">
    <ele>33.18</ele>
   </trkpt>
   <trkpt lat="50.60079" lon="3.01086">
    <ele>33.18</ele>
   </trkpt>
   <trkpt lat="50.60067" lon="3.01053">
    <ele>32.300000000000004</ele>
   </trkpt>
   <trkpt lat="50.60063" lon="3.0102900000000004">
    <ele>31.900000000000006</ele>
   </trkpt>
   <trkpt lat="50.60040000000001" lon="3.0098800000000003">
    <ele>30.720000000000002</ele>
   </trkpt>
   <trkpt lat="50.59986000000001" lon="3.00916">
    <ele>29.330000000000002</ele>
   </trkpt>
   <trkpt lat="50.599740000000004" lon="3.00897">
    <ele>29.040000000000003</ele>
   </trkpt>
   <trkpt lat="50.599610000000006" lon="3.00871">
    <ele>28.87</ele>
   </trkpt>
   <trkpt lat="50.599450000000004" lon="3.0083300000000004">
    <ele>28.200000000000003</ele>
   </trkpt>
   <trkpt lat="50.599360000000004" lon="3.0080400000000003">
    <ele>27.91</ele>
   </trkpt>
   <trkpt lat="50.599160000000005" lon="3.0071100000000004">
    <ele>27.6</ele>
   </trkpt>
   <trkpt lat="50.59902667914288" lon="3.005903326602418">
    <ele>26.320000000000004</ele>
   </trkpt>
   <trkpt lat="50.598893345821196" lon="3.0046966600414273">
    <ele>25.61</ele>
   </trkpt>
   <trkpt lat="50.598760000000006" lon="3.00349">
    <ele>25.630000000000003</ele>
   </trkpt>
   <trkpt lat="50.598560000000006" lon="3.00353">
    <ele>25.79</ele>
   </trkpt>
   <trkpt lat="50.598470000000006" lon="3.00333">
    <ele>26.050000000000004</ele>
   </trkpt>
   <trkpt lat="50.598330000000004" lon="3.00353">
    <ele>25.970000000000002</ele>
   </trkpt>
   <trkpt lat="50.59814" lon="3.0038">
    <ele>25.970000000000002</ele>
   </trkpt>
   <trkpt lat="50.59760666982642" lon="3.004406680404962">
    <ele>25.970000000000002</ele>
   </trkpt>
   <trkpt lat="50.59707333650209" lon="3.005013347061173">
    <ele>26.51</ele>
   </trkpt>
   <trkpt lat="50.596540000000005" lon="3.0056200000000004">
    <ele>27.26</ele>
   </trkpt>
   <trkpt lat="50.59631" lon="3.0053400000000003">
    <ele>27.160000000000004</ele>
   </trkpt>
   <trkpt lat="50.596210000000006" lon="3.0051400000000004">
    <ele>26.950000000000003</ele>
   </trkpt>
   <trkpt lat="50.59599000000001" lon="3.0046100000000004">
    <ele>26.76</ele>
   </trkpt>
   <trkpt lat="50.595890000000004" lon="3.00448">
    <ele>26.76</ele>
   </trkpt>
   <trkpt lat="50.59565500514366" lon="3.0033849945863906">
    <ele>25.910000000000004</ele>
   </trkpt>
   <trkpt lat="50.595420000000004" lon="3.0022900000000003">
    <ele>25.75</ele>
   </trkpt>
   <trkpt lat="50.595265004259765" lon="3.0012899965742106">
    <ele>25.130000000000003</ele>
   </trkpt>
   <trkpt lat="50.595110000000005" lon="3.00029">
    <ele>24.87</ele>
   </trkpt>
   <trkpt lat="50.59465" lon="3.0004600000000003">
    <ele>25.01</ele>
   </trkpt>
   <trkpt lat="50.59383000008537" lon="3.00053000121387">
    <ele>25.68</ele>
   </trkpt>
   <trkpt lat="50.59301000000001" lon="3.0006000000000004">
    <ele>26.18</ele>
   </trkpt>
   <trkpt lat="50.59302" lon="3.0008800000000004">
    <ele>26.3</ele>
   </trkpt>
   <trkpt lat="50.59299000000001" lon="3.0013900000000002">
    <ele>26.63</ele>
   </trkpt>
   <trkpt lat="50.59297" lon="3.0017">
    <ele>26.85</ele>
   </trkpt>
   <trkpt lat="50.592940000000006" lon="3.00184">
    <ele>26.85</ele>
   </trkpt>
   <trkpt lat="50.592870000000005" lon="3.0020000000000002">
    <ele>26.96</ele>
   </trkpt>
   <trkpt lat="50.59279" lon="3.0020900000000004">
    <ele>26.96</ele>
   </trkpt>
   <trkpt lat="50.59272000000001" lon="3.00213">
    <ele>26.96</ele>
   </trkpt>
   <trkpt lat="50.5923" lon="3.00232">
    <ele>27.23</ele>
   </trkpt>
   <trkpt lat="50.59214000000001" lon="3.00245">
    <ele>27.23</ele>
   </trkpt>
   <trkpt lat="50.59205000000001" lon="3.0026300000000004">
    <ele>27.330000000000002</ele>
   </trkpt>
   <trkpt lat="50.59197" lon="3.0031800000000004">
    <ele>27.650000000000002</ele>
   </trkpt>
   <trkpt lat="50.59194" lon="3.0033000000000003">
    <ele>27.650000000000002</ele>
   </trkpt>
   <trkpt lat="50.591860000000004" lon="3.00347">
    <ele>27.55</ele>
   </trkpt>
   <trkpt lat="50.59172" lon="3.00368">
    <ele>27.55</ele>
   </trkpt>
   <trkpt lat="50.59109" lon="3.0043900000000003">
    <ele>27.200000000000003</ele>
   </trkpt>
   <trkpt lat="50.590600002136455" lon="3.00509500732481">
    <ele>27.05</ele>
   </trkpt>
   <trkpt lat="50.59011" lon="3.0058000000000002">
    <ele>26.910000000000004</ele>
   </trkpt>
   <trkpt lat="50.589650000000006" lon="3.0063700000000004">
    <ele>26.8</ele>
   </trkpt>
   <trkpt lat="50.588950000000004" lon="3.0071100000000004">
    <ele>26.36</ele>
   </trkpt>
   <trkpt lat="50.58887000000001" lon="3.0072900000000002">
    <ele>26.26</ele>
   </trkpt>
   <trkpt lat="50.588770000000004" lon="3.0073200000000004">
    <ele>25.86</ele>
   </trkpt>
   <trkpt lat="50.5887" lon="3.0073800000000004">
    <ele>25.86</ele>
   </trkpt>
   <trkpt lat="50.588350000000005" lon="3.00782">
    <ele>25.540000000000003</ele>
   </trkpt>
   <trkpt lat="50.58827" lon="3.00796">
    <ele>25.540000000000003</ele>
   </trkpt>
   <trkpt lat="50.58752000177537" lon="3.0086150104868175">
    <ele>23.91</ele>
   </trkpt>
   <trkpt lat="50.58677" lon="3.0092700000000003">
    <ele>23.48</ele>
   </trkpt>
   <trkpt lat="50.5865" lon="3.00963">
    <ele>23.560000000000002</ele>
   </trkpt>
   <trkpt lat="50.58598500354484" lon="3.0105400099528308">
    <ele>23.42</ele>
   </trkpt>
   <trkpt lat="50.58547" lon="3.0114500000000004">
    <ele>23.360000000000003</ele>
   </trkpt>
   <trkpt lat="50.58529000000001" lon="3.01168">
    <ele>23.14</ele>
   </trkpt>
   <trkpt lat="50.58493000000001" lon="3.0120000000000005">
    <ele>23.03</ele>
   </trkpt>
   <trkpt lat="50.584320000000005" lon="3.01241">
    <ele>22.56</ele>
   </trkpt>
   <trkpt lat="50.58410000000001" lon="3.0125400000000004">
    <ele>22.490000000000002</ele>
   </trkpt>
   <trkpt lat="50.583920000000006" lon="3.0126100000000005">
    <ele>22.490000000000002</ele>
   </trkpt>
   <trkpt lat="50.583650000000006" lon="3.01264">
    <ele>22.410000000000004</ele>
   </trkpt>
   <trkpt lat="50.58321" lon="3.0125400000000004">
    <ele>22.01</ele>
   </trkpt>
   <trkpt lat="50.58314000000001" lon="3.01248">
    <ele>22.01</ele>
   </trkpt>
   <trkpt lat="50.583090000000006" lon="3.0126500000000003">
    <ele>21.94</ele>
   </trkpt>
   <trkpt lat="50.582530000000006" lon="3.0123100000000003">
    <ele>21.86</ele>
   </trkpt>
   <trkpt lat="50.58198" lon="3.01222">
    <ele>22.09</ele>
   </trkpt>
   <trkpt lat="50.58182000000001" lon="3.01216">
    <ele>22.09</ele>
   </trkpt>
   <trkpt lat="50.581680000000006" lon="3.0120500000000003">
    <ele>22.230000000000004</ele>
   </trkpt>
   <trkpt lat="50.58119000000001" lon="3.0115900000000004">
    <ele>22.55</ele>
   </trkpt>
   <trkpt lat="50.58102" lon="3.01147">
    <ele>22.55</ele>
   </trkpt>
   <trkpt lat="50.58082" lon="3.01141">
    <ele>22.650000000000002</ele>
   </trkpt>
   <trkpt lat="50.58084" lon="3.01141">
    <ele>22.64</ele>
   </trkpt>
   <trkpt lat="50.58077" lon="3.01141">
    <ele>22.660000000000004</ele>
   </trkpt>
   <trkpt lat="50.580630000000006" lon="3.01146">
    <ele>22.580000000000002</ele>
   </trkpt>
   <trkpt lat="50.58055" lon="3.0115200000000004">
    <ele>22.580000000000002</ele>
   </trkpt>
   <trkpt lat="50.58046" lon="3.0115000000000003">
    <ele>22.650000000000002</ele>
   </trkpt>
   <trkpt lat="50.58039" lon="3.0115700000000003">
    <ele>22.650000000000002</ele>
   </trkpt>
   <trkpt lat="50.57978000779574" lon="3.012350030330016">
    <ele>22.580000000000002</ele>
   </trkpt>
   <trkpt lat="50.57917001038232" lon="3.0131300404546377">
    <ele>22.7</ele>
   </trkpt>
   <trkpt lat="50.57856000775996" lon="3.0139100303746553">
    <ele>22.87</ele>
   </trkpt>
   <trkpt lat="50.57795" lon="3.0146900000000003">
    <ele>23.06</ele>
   </trkpt>
   <trkpt lat="50.57781000000001" lon="3.01493">
    <ele>23.090000000000003</ele>
   </trkpt>
   <trkpt lat="50.577690000000004" lon="3.0152900000000002">
    <ele>23.07</ele>
   </trkpt>
   <trkpt lat="50.577470000000005" lon="3.0160600000000004">
    <ele>23.19</ele>
   </trkpt>
   <trkpt lat="50.577380000000005" lon="3.01656">
    <ele>23.250000000000004</ele>
   </trkpt>
   <trkpt lat="50.57714000000001" lon="3.01682">
    <ele>23.360000000000003</ele>
   </trkpt>
   <trkpt lat="50.576755001042" lon="3.017295003788608">
    <ele>23.590000000000003</ele>
   </trkpt>
   <trkpt lat="50.576370000000004" lon="3.01777">
    <ele>23.89</ele>
   </trkpt>
   <trkpt lat="50.57618" lon="3.01797">
    <ele>24.25</ele>
   </trkpt>
   <trkpt lat="50.57611000000001" lon="3.0180100000000003">
    <ele>24.25</ele>
   </trkpt>
   <trkpt lat="50.57605" lon="3.0180000000000002">
    <ele>24.28</ele>
   </trkpt>
   <trkpt lat="50.575970000000005" lon="3.01792">
    <ele>24.28</ele>
   </trkpt>
   <trkpt lat="50.57591000000001" lon="3.0178300000000005">
    <ele>24.37</ele>
   </trkpt>
   <trkpt lat="50.57584000000001" lon="3.01779">
    <ele>24.37</ele>
   </trkpt>
   <trkpt lat="50.575340000000004" lon="3.0177">
    <ele>24.5</ele>
   </trkpt>
   <trkpt lat="50.57482" lon="3.01765">
    <ele>24.87</ele>
   </trkpt>
   <trkpt lat="50.57473" lon="3.0176800000000004">
    <ele>24.87</ele>
   </trkpt>
   <trkpt lat="50.57452000000001" lon="3.01771">
    <ele>24.91</ele>
   </trkpt>
   <trkpt lat="50.574510000000004" lon="3.01771">
    <ele>24.900000000000002</ele>
   </trkpt>
   <trkpt lat="50.574400000000004" lon="3.01765">
    <ele>24.900000000000002</ele>
   </trkpt>
   <trkpt lat="50.57432000000001" lon="3.0176600000000002">
    <ele>24.900000000000002</ele>
   </trkpt>
   <trkpt lat="50.574220000000004" lon="3.0176700000000003">
    <ele>24.740000000000002</ele>
   </trkpt>
   <trkpt lat="50.57408" lon="3.01757">
    <ele>24.740000000000002</ele>
   </trkpt>
   <trkpt lat="50.57383" lon="3.0173500000000004">
    <ele>24.720000000000002</ele>
   </trkpt>
   <trkpt lat="50.57361" lon="3.0172000000000003">
    <ele>24.610000000000003</ele>
   </trkpt>
   <trkpt lat="50.572872502097255" lon="3.016794980973843">
    <ele>24.73</ele>
   </trkpt>
   <trkpt lat="50.57213500279004" lon="3.0163899746288285">
    <ele>25.220000000000002</ele>
   </trkpt>
   <trkpt lat="50.571397502078426" lon="3.015984980964252">
    <ele>25.61</ele>
   </trkpt>
   <trkpt lat="50.570660000000004" lon="3.0155800000000004">
    <ele>26.480000000000004</ele>
   </trkpt>
   <trkpt lat="50.570440000000005" lon="3.0153800000000004">
    <ele>26.81</ele>
   </trkpt>
   <trkpt lat="50.57036" lon="3.0152500000000004">
    <ele>26.81</ele>
   </trkpt>
   <trkpt lat="50.570330000000006" lon="3.0150900000000003">
    <ele>26.81</ele>
   </trkpt>
   <trkpt lat="50.57025" lon="3.0149800000000004">
    <ele>26.840000000000003</ele>
   </trkpt>
   <trkpt lat="50.570190000000004" lon="3.0149500000000002">
    <ele>26.840000000000003</ele>
   </trkpt>
   <trkpt lat="50.57009000000001" lon="3.0149800000000004">
    <ele>26.840000000000003</ele>
   </trkpt>
   <trkpt lat="50.570040000000006" lon="3.0150300000000003">
    <ele>26.840000000000003</ele>
   </trkpt>
   <trkpt lat="50.56991000000001" lon="3.0150300000000003">
    <ele>26.840000000000003</ele>
   </trkpt>
   <trkpt lat="50.56967" lon="3.01492">
    <ele>27.32</ele>
   </trkpt>
   <trkpt lat="50.56888000000001" lon="3.0144">
    <ele>27.590000000000003</ele>
   </trkpt>
   <trkpt lat="50.56862" lon="3.0141400000000003">
    <ele>28.090000000000003</ele>
   </trkpt>
   <trkpt lat="50.568360000000006" lon="3.01372">
    <ele>28.23</ele>
   </trkpt>
   <trkpt lat="50.568110000000004" lon="3.0131500000000004">
    <ele>28.860000000000003</ele>
   </trkpt>
   <trkpt lat="50.56796000000001" lon="3.0128700000000004">
    <ele>29.16</ele>
   </trkpt>
   <trkpt lat="50.56767000000001" lon="3.01243">
    <ele>29.66</ele>
   </trkpt>
   <trkpt lat="50.567213336948946" lon="3.01178332084802">
    <ele>30.220000000000002</ele>
   </trkpt>
   <trkpt lat="50.56675667031723" lon="3.011136654231011">
    <ele>30.860000000000003</ele>
   </trkpt>
   <trkpt lat="50.566300000000005" lon="3.0104900000000003">
    <ele>31.000000000000004</ele>
   </trkpt>
   <trkpt lat="50.5658533368694" lon="3.009843321008994">
    <ele>31.060000000000002</ele>
   </trkpt>
   <trkpt lat="50.5654066701581" lon="3.0091966542778783">
    <ele>30.840000000000003</ele>
   </trkpt>
   <trkpt lat="50.564960000000006" lon="3.00855">
    <ele>29.910000000000004</ele>
   </trkpt>
   <trkpt lat="50.564350000000005" lon="3.0076600000000004">
    <ele>29.16</ele>
   </trkpt>
   <trkpt lat="50.56418000000001" lon="3.0073100000000004">
    <ele>28.89</ele>
   </trkpt>
   <trkpt lat="50.563900000000004" lon="3.0069600000000003">
    <ele>28.720000000000002</ele>
   </trkpt>
   <trkpt lat="50.56340751024873" lon="3.006067472049682">
    <ele>27.990000000000002</ele>
   </trkpt>
   <trkpt lat="50.56291501367658" lon="3.0051749627545594">
    <ele>27.470000000000002</ele>
   </trkpt>
   <trkpt lat="50.5624225102838" lon="3.004282472114175">
    <ele>26.85</ele>
   </trkpt>
   <trkpt lat="50.561930000000004" lon="3.0033900000000004">
    <ele>26.13</ele>
   </trkpt>
   <trkpt lat="50.56160000620472" lon="3.004240011857098">
    <ele>25.94</ele>
   </trkpt>
   <trkpt lat="50.5612700062228" lon="3.0050900118103803">
    <ele>25.66</ele>
   </trkpt>
   <trkpt lat="50.56094" lon="3.0059400000000003">
    <ele>25.540000000000003</ele>
   </trkpt>
   <trkpt lat="50.56066000198974" lon="3.006620004015624">
    <ele>25.44</ele>
   </trkpt>
   <trkpt lat="50.56038" lon="3.0073000000000003">
    <ele>25.41</ele>
   </trkpt>
   <trkpt lat="50.56001000220814" lon="3.008005005381876">
    <ele>25.61</ele>
   </trkpt>
   <trkpt lat="50.55964" lon="3.00871">
    <ele>25.76</ele>
   </trkpt>
   <trkpt lat="50.55951" lon="3.0090100000000004">
    <ele>25.75</ele>
   </trkpt>
   <trkpt lat="50.559430000000006" lon="3.0092800000000004">
    <ele>25.800000000000004</ele>
   </trkpt>
   <trkpt lat="50.55920000564128" lon="3.0104300057164437">
    <ele>25.86</ele>
   </trkpt>
   <trkpt lat="50.55897" lon="3.0115800000000004">
    <ele>26.320000000000004</ele>
   </trkpt>
   <trkpt lat="50.5587" lon="3.0124500000000003">
    <ele>26.37</ele>
   </trkpt>
   <trkpt lat="50.558240000000005" lon="3.01324">
    <ele>26.21</ele>
   </trkpt>
   <trkpt lat="50.55785" lon="3.0138100000000003">
    <ele>25.650000000000002</ele>
   </trkpt>
   <trkpt lat="50.55740000152857" lon="3.014405005663586">
    <ele>25.43</ele>
   </trkpt>
   <trkpt lat="50.55695000000001" lon="3.015">
    <ele>25.26</ele>
   </trkpt>
   <trkpt lat="50.55682" lon="3.01515">
    <ele>25.28</ele>
   </trkpt>
   <trkpt lat="50.55635" lon="3.0155800000000004">
    <ele>25.36</ele>
   </trkpt>
   <trkpt lat="50.55601000000001" lon="3.01594">
    <ele>25.42</ele>
   </trkpt>
   <trkpt lat="50.55577" lon="3.0163200000000003">
    <ele>25.560000000000002</ele>
   </trkpt>
   <trkpt lat="50.5553000088442" lon="3.0173366869549265">
    <ele>26.320000000000004</ele>
   </trkpt>
   <trkpt lat="50.554830008837314" lon="3.0183533536361176">
    <ele>26.98</ele>
   </trkpt>
   <trkpt lat="50.55436" lon="3.0193700000000003">
    <ele>27.410000000000004</ele>
   </trkpt>
   <trkpt lat="50.55390000810768" lon="3.020343352339375">
    <ele>27.500000000000004</ele>
   </trkpt>
   <trkpt lat="50.55344000810264" lon="3.0213166856830505">
    <ele>27.57</ele>
   </trkpt>
   <trkpt lat="50.552980000000005" lon="3.0222900000000004">
    <ele>27.6</ele>
   </trkpt>
   <trkpt lat="50.552550002860826" lon="3.0231000072908683">
    <ele>27.55</ele>
   </trkpt>
   <trkpt lat="50.55212" lon="3.0239100000000003">
    <ele>27.540000000000003</ele>
   </trkpt>
   <trkpt lat="50.55189000000001" lon="3.0243100000000003">
    <ele>27.46</ele>
   </trkpt>
   <trkpt lat="50.551285002746276" lon="3.025110010258272">
    <ele>27.42</ele>
   </trkpt>
   <trkpt lat="50.55068000000001" lon="3.02591">
    <ele>27.700000000000003</ele>
   </trkpt>
   <trkpt lat="50.55023000241386" lon="3.0266450068507273">
    <ele>27.6</ele>
   </trkpt>
   <trkpt lat="50.549780000000005" lon="3.0273800000000004">
    <ele>27.590000000000003</ele>
   </trkpt>
   <trkpt lat="50.54957" lon="3.0277600000000002">
    <ele>27.680000000000003</ele>
   </trkpt>
   <trkpt lat="50.54907000000001" lon="3.0289200000000003">
    <ele>28.380000000000003</ele>
   </trkpt>
   <trkpt lat="50.54981" lon="3.02965">
    <ele>29.16</ele>
   </trkpt>
   <trkpt lat="50.549980000000005" lon="3.02979">
    <ele>29.76</ele>
   </trkpt>
   <trkpt lat="50.55051500070422" lon="3.0301749956812">
    <ele>30.69</ele>
   </trkpt>
   <trkpt lat="50.551050000000004" lon="3.0305600000000004">
    <ele>31.67</ele>
   </trkpt>
   <trkpt lat="50.55106000000001" lon="3.0305600000000004">
    <ele>31.68</ele>
   </trkpt>
   <trkpt lat="50.551120000000004" lon="3.0304100000000003">
    <ele>31.66</ele>
   </trkpt>
   <trkpt lat="50.551390000000005" lon="3.0293">
    <ele>31.650000000000002</ele>
   </trkpt>
   <trkpt lat="50.55169" lon="3.0294200000000004">
    <ele>31.73</ele>
   </trkpt>
   <trkpt lat="50.551790000000004" lon="3.0294100000000004">
    <ele>31.720000000000006</ele>
   </trkpt>
   <trkpt lat="50.5521" lon="3.02924">
    <ele>32.6</ele>
   </trkpt>
   <trkpt lat="50.552620000000005" lon="3.02991">
    <ele>33.150000000000006</ele>
   </trkpt>
   <trkpt lat="50.552870000000006" lon="3.0301500000000003">
    <ele>33.39</ele>
   </trkpt>
   <trkpt lat="50.55293" lon="3.03017">
    <ele>33.39</ele>
   </trkpt>
   <trkpt lat="50.55301000000001" lon="3.03017">
    <ele>33.79</ele>
   </trkpt>
   <trkpt lat="50.553110000000004" lon="3.03013">
    <ele>33.79</ele>
   </trkpt>
   <trkpt lat="50.553160000000005" lon="3.03006">
    <ele>33.79</ele>
   </trkpt>
   <trkpt lat="50.553160000000005" lon="3.03005">
    <ele>33.79</ele>
   </trkpt>
   <trkpt lat="50.55362" lon="3.0289400000000004">
    <ele>34.09</ele>
   </trkpt>
   <trkpt lat="50.553940000000004" lon="3.0283300000000004">
    <ele>34.010000000000005</ele>
   </trkpt>
   <trkpt lat="50.554100000000005" lon="3.02816">
    <ele>33.81</ele>
   </trkpt>
   <trkpt lat="50.554100000000005" lon="3.02815">
    <ele>33.800000000000004</ele>
   </trkpt>
   <trkpt lat="50.5544" lon="3.0287200000000003">
    <ele>33.86</ele>
   </trkpt>
   <trkpt lat="50.55482333786421" lon="3.0294499868325295">
    <ele>34.63</ele>
   </trkpt>
   <trkpt lat="50.55524667116521" lon="3.0301799867765906">
    <ele>35.410000000000004</ele>
   </trkpt>
   <trkpt lat="50.555670000000006" lon="3.0309100000000004">
    <ele>36.1</ele>
   </trkpt>
   <trkpt lat="50.55583000000001" lon="3.0311800000000004">
    <ele>36.1</ele>
   </trkpt>
   <trkpt lat="50.55644" lon="3.03196">
    <ele>38.080000000000005</ele>
   </trkpt>
   <trkpt lat="50.55648000000001" lon="3.03214">
    <ele>38.080000000000005</ele>
   </trkpt>
   <trkpt lat="50.55646" lon="3.03229">
    <ele>38.1</ele>
   </trkpt>
   <trkpt lat="50.556250000000006" lon="3.03268">
    <ele>38.18000000000001</ele>
   </trkpt>
   <trkpt lat="50.556180000000005" lon="3.0328800000000005">
    <ele>38.38</ele>
   </trkpt>
   <trkpt lat="50.55670500023439" lon="3.033069997912668">
    <ele>39.06</ele>
   </trkpt>
   <trkpt lat="50.557230000000004" lon="3.0332600000000003">
    <ele>39.650000000000006</ele>
   </trkpt>
   <trkpt lat="50.557430000000004" lon="3.03337">
    <ele>40.1</ele>
   </trkpt>
   <trkpt lat="50.55754" lon="3.0334000000000003">
    <ele>40.190000000000005</ele>
   </trkpt>
   <trkpt lat="50.55762000000001" lon="3.03338">
    <ele>40.290000000000006</ele>
   </trkpt>
   <trkpt lat="50.55792" lon="3.0332600000000003">
    <ele>40.38</ele>
   </trkpt>
   <trkpt lat="50.558020000000006" lon="3.0333300000000003">
    <ele>40.38</ele>
   </trkpt>
   <trkpt lat="50.55812" lon="3.0334200000000004">
    <ele>40.940000000000005</ele>
   </trkpt>
   <trkpt lat="50.558130000000006" lon="3.03357">
    <ele>40.940000000000005</ele>
   </trkpt>
   <trkpt lat="50.558220000000006" lon="3.0338000000000003">
    <ele>41.190000000000005</ele>
   </trkpt>
   <trkpt lat="50.55852" lon="3.0340900000000004">
    <ele>41.49</ele>
   </trkpt>
   <trkpt lat="50.55866" lon="3.03426">
    <ele>41.57</ele>
   </trkpt>
   <trkpt lat="50.558670000000006" lon="3.03426">
    <ele>41.580000000000005</ele>
   </trkpt>
   <trkpt lat="50.559270005643256" lon="3.0350733125966105">
    <ele>42.24000000000001</ele>
   </trkpt>
   <trkpt lat="50.55987000562223" lon="3.035886645901057">
    <ele>42.85000000000001</ele>
   </trkpt>
   <trkpt lat="50.56047" lon="3.0367">
    <ele>42.99</ele>
   </trkpt>
   <trkpt lat="50.56065" lon="3.03697">
    <ele>42.99</ele>
   </trkpt>
   <trkpt lat="50.56113333648064" lon="3.037579987438981">
    <ele>42.730000000000004</ele>
   </trkpt>
   <trkpt lat="50.56161666977514" lon="3.0381899873897873">
    <ele>42.230000000000004</ele>
   </trkpt>
   <trkpt lat="50.5621" lon="3.0388">
    <ele>41.89</ele>
   </trkpt>
   <trkpt lat="50.56269500188035" lon="3.039459991684065">
    <ele>41.14</ele>
   </trkpt>
   <trkpt lat="50.56329" lon="3.0401200000000004">
    <ele>40.480000000000004</ele>
   </trkpt>
   <trkpt lat="50.56378" lon="3.04062">
    <ele>39.68</ele>
   </trkpt>
   <trkpt lat="50.56443" lon="3.0411500000000005">
    <ele>39.03</ele>
   </trkpt>
   <trkpt lat="50.564440000000005" lon="3.04124">
    <ele>39.03</ele>
   </trkpt>
   <trkpt lat="50.564620000000005" lon="3.0412800000000004">
    <ele>38.790000000000006</ele>
   </trkpt>
   <trkpt lat="50.564710000000005" lon="3.0412600000000003">
    <ele>38.64</ele>
   </trkpt>
   <trkpt lat="50.56472" lon="3.04129">
    <ele>38.64</ele>
   </trkpt>
   <trkpt lat="50.565000000000005" lon="3.04149">
    <ele>38.34</ele>
   </trkpt>
   <trkpt lat="50.565020000000004" lon="3.0415400000000004">
    <ele>38.27</ele>
   </trkpt>
   <trkpt lat="50.5651" lon="3.04145">
    <ele>38.19</ele>
   </trkpt>
   <trkpt lat="50.565160000000006" lon="3.0416100000000004">
    <ele>37.790000000000006</ele>
   </trkpt>
   <trkpt lat="50.565270000000005" lon="3.0417400000000003">
    <ele>37.790000000000006</ele>
   </trkpt>
   <trkpt lat="50.565870000000004" lon="3.04219">
    <ele>37.25000000000001</ele>
   </trkpt>
   <trkpt lat="50.565920000000006" lon="3.04218">
    <ele>37.25000000000001</ele>
   </trkpt>
   <trkpt lat="50.5662" lon="3.0423700000000005">
    <ele>36.87</ele>
   </trkpt>
   <trkpt lat="50.566210000000005" lon="3.0424100000000003">
    <ele>36.87</ele>
   </trkpt>
   <trkpt lat="50.56676000139" lon="3.042806657437229">
    <ele>35.910000000000004</ele>
   </trkpt>
   <trkpt lat="50.56731000143277" lon="3.0432033241346077">
    <ele>35.33</ele>
   </trkpt>
   <trkpt lat="50.56786" lon="3.0436">
    <ele>34.42000000000001</ele>
   </trkpt>
   <trkpt lat="50.56835500056163" lon="3.043934996535455">
    <ele>33.81</ele>
   </trkpt>
   <trkpt lat="50.568850000000005" lon="3.04427">
    <ele>33.28</ele>
   </trkpt>
   <trkpt lat="50.56937500044941" lon="3.0446049962472745">
    <ele>32.199999999999996</ele>
   </trkpt>
   <trkpt lat="50.569900000000004" lon="3.0449400000000004">
    <ele>31.830000000000002</ele>
   </trkpt>
   <trkpt lat="50.57072000113311" lon="3.0454399913357166">
    <ele>31.17</ele>
   </trkpt>
   <trkpt lat="50.571540000000006" lon="3.0459400000000003">
    <ele>30.900000000000002</ele>
   </trkpt>
   <trkpt lat="50.571580000000004" lon="3.04591">
    <ele>30.890000000000004</ele>
   </trkpt>
   <trkpt lat="50.57184" lon="3.0460700000000003">
    <ele>30.720000000000002</ele>
   </trkpt>
   <trkpt lat="50.57184" lon="3.0462000000000002">
    <ele>30.720000000000002</ele>
   </trkpt>
   <trkpt lat="50.572473334881266" lon="3.046619988732031">
    <ele>30.54</ele>
   </trkpt>
   <trkpt lat="50.57310666825222" lon="3.0470399887567874">
    <ele>30.67</ele>
   </trkpt>
   <trkpt lat="50.57374" lon="3.04746">
    <ele>30.680000000000003</ele>
   </trkpt>
   <trkpt lat="50.57424" lon="3.0477700000000003">
    <ele>31.070000000000004</ele>
   </trkpt>
   <trkpt lat="50.57482" lon="3.04808">
    <ele>31.93</ele>
   </trkpt>
   <trkpt lat="50.57499000000001" lon="3.0481700000000003">
    <ele>32.150000000000006</ele>
   </trkpt>
   <trkpt lat="50.57524" lon="3.0482400000000003">
    <ele>33.150000000000006</ele>
   </trkpt>
   <trkpt lat="50.57567500026873" lon="3.048474997847257">
    <ele>33.6</ele>
   </trkpt>
   <trkpt lat="50.57611000000001" lon="3.0487100000000003">
    <ele>34.120000000000005</ele>
   </trkpt>
   <trkpt lat="50.57675000029053" lon="3.048984996249174">
    <ele>35.18</ele>
   </trkpt>
   <trkpt lat="50.57739" lon="3.0492600000000003">
    <ele>35.65</ele>
   </trkpt>
   <trkpt lat="50.578030000000005" lon="3.04951">
    <ele>35.9</ele>
   </trkpt>
   <trkpt lat="50.57859000002688" lon="3.0496499983211685">
    <ele>35.69</ele>
   </trkpt>
   <trkpt lat="50.579150000000006" lon="3.0497900000000002">
    <ele>35.4</ele>
   </trkpt>
   <trkpt lat="50.5795" lon="3.04992">
    <ele>35.32</ele>
   </trkpt>
   <trkpt lat="50.58010500016505" lon="3.050069998090151">
    <ele>34.940000000000005</ele>
   </trkpt>
   <trkpt lat="50.58071" lon="3.0502200000000004">
    <ele>34.730000000000004</ele>
   </trkpt>
   <trkpt lat="50.581175000022334" lon="3.050359998599142">
    <ele>34.35</ele>
   </trkpt>
   <trkpt lat="50.58164000000001" lon="3.0505000000000004">
    <ele>34.33</ele>
   </trkpt>
   <trkpt lat="50.58196" lon="3.0506400000000005">
    <ele>34.25</ele>
   </trkpt>
   <trkpt lat="50.58264000017024" lon="3.0508699966598547">
    <ele>34.510000000000005</ele>
   </trkpt>
   <trkpt lat="50.58332000000001" lon="3.0511000000000004">
    <ele>34.81</ele>
   </trkpt>
   <trkpt lat="50.583780000000004" lon="3.05119">
    <ele>35.51</ele>
   </trkpt>
   <trkpt lat="50.583960000000005" lon="3.05119">
    <ele>35.51</ele>
   </trkpt>
   <trkpt lat="50.58475000000001" lon="3.0513600000000003">
    <ele>36.14000000000001</ele>
   </trkpt>
   <trkpt lat="50.58527000005989" lon="3.0515199982178047">
    <ele>37.18000000000001</ele>
   </trkpt>
   <trkpt lat="50.58579" lon="3.05168">
    <ele>38.540000000000006</ele>
   </trkpt>
   <trkpt lat="50.58596000000001" lon="3.0517200000000004">
    <ele>38.86000000000001</ele>
   </trkpt>
   <trkpt lat="50.58635" lon="3.0517600000000003">
    <ele>39.650000000000006</ele>
   </trkpt>
   <trkpt lat="50.58666" lon="3.05174">
    <ele>40.150000000000006</ele>
   </trkpt>
   <trkpt lat="50.58679" lon="3.0517700000000003">
    <ele>40.470000000000006</ele>
   </trkpt>
   <trkpt lat="50.58690000000001" lon="3.0517700000000003">
    <ele>40.470000000000006</ele>
   </trkpt>
   <trkpt lat="50.58717000000001" lon="3.0517200000000004">
    <ele>40.620000000000005</ele>
   </trkpt>
   <trkpt lat="50.587610000000005" lon="3.0515900000000005">
    <ele>40.63</ele>
   </trkpt>
   <trkpt lat="50.588405000059694" lon="3.051415002970624">
    <ele>40.85</ele>
   </trkpt>
   <trkpt lat="50.589200000000005" lon="3.0512400000000004">
    <ele>42.07</ele>
   </trkpt>
   <trkpt lat="50.589420000000004" lon="3.05121">
    <ele>42.56</ele>
   </trkpt>
   <trkpt lat="50.590180000000004" lon="3.0512">
    <ele>43.53000000000001</ele>
   </trkpt>
   <trkpt lat="50.59107499995929" lon="3.0511500009534185">
    <ele>44.97</ele>
   </trkpt>
   <trkpt lat="50.59197" lon="3.0511000000000004">
    <ele>46.31</ele>
   </trkpt>
   <trkpt lat="50.59263000000001" lon="3.0510900000000003">
    <ele>47.470000000000006</ele>
   </trkpt>
   <trkpt lat="50.59334499999864" lon="3.051094999772156">
    <ele>49.150000000000006</ele>
   </trkpt>
   <trkpt lat="50.59405999999706" lon="3.0510999996961945">
    <ele>50.0</ele>
   </trkpt>
   <trkpt lat="50.59477499999526" lon="3.051104999772124">
    <ele>51.35000000000001</ele>
   </trkpt>
   <trkpt lat="50.595490000000005" lon="3.0511100000000004">
    <ele>52.190000000000005</ele>
   </trkpt>
   <trkpt lat="50.59579" lon="3.05113">
    <ele>52.33</ele>
   </trkpt>
   <trkpt lat="50.5966" lon="3.05121">
    <ele>52.050000000000004</ele>
   </trkpt>
   <trkpt lat="50.5972" lon="3.0513500000000002">
    <ele>50.89</ele>
   </trkpt>
   <trkpt lat="50.59733000000001" lon="3.0514400000000004">
    <ele>50.89</ele>
   </trkpt>
   <trkpt lat="50.59783" lon="3.0518600000000005">
    <ele>48.96</ele>
   </trkpt>
   <trkpt lat="50.59846" lon="3.05243">
    <ele>48.190000000000005</ele>
   </trkpt>
   <trkpt lat="50.598670000000006" lon="3.0526000000000004">
    <ele>47.220000000000006</ele>
   </trkpt>
   <trkpt lat="50.598960000000005" lon="3.0527800000000003">
    <ele>46.3</ele>
   </trkpt>
   <trkpt lat="50.599270000000004" lon="3.0530500000000003">
    <ele>45.69</ele>
   </trkpt>
   <trkpt lat="50.59962" lon="3.0533400000000004">
    <ele>44.95</ele>
   </trkpt>
   <trkpt lat="50.59964" lon="3.0544200000000004">
    <ele>44.84</ele>
   </trkpt>
   <trkpt lat="50.59958000761873" lon="3.055363335723905">
    <ele>45.040000000000006</ele>
   </trkpt>
   <trkpt lat="50.59952000761964" lon="3.056306669042723">
    <ele>45.21000000000001</ele>
   </trkpt>
   <trkpt lat="50.59946000000001" lon="3.0572500000000002">
    <ele>45.410000000000004</ele>
   </trkpt>
   <trkpt lat="50.59925500430119" lon="3.058250004253619">
    <ele>45.19</ele>
   </trkpt>
   <trkpt lat="50.599050000000005" lon="3.0592500000000005">
    <ele>44.410000000000004</ele>
   </trkpt>
   <trkpt lat="50.59888500339683" lon="3.06014000308541">
    <ele>43.92</ele>
   </trkpt>
   <trkpt lat="50.59872000000001" lon="3.06103">
    <ele>43.24</ele>
   </trkpt>
   <trkpt lat="50.5987" lon="3.0611800000000002">
    <ele>43.08</ele>
   </trkpt>
   <trkpt lat="50.598690000000005" lon="3.0615300000000003">
    <ele>42.82</ele>
   </trkpt>
   <trkpt lat="50.598735003507706" lon="3.0624349991764195">
    <ele>42.32</ele>
   </trkpt>
   <trkpt lat="50.598780000000005" lon="3.06334">
    <ele>41.86</ele>
   </trkpt>
   <trkpt lat="50.59893" lon="3.06407">
    <ele>41.57</ele>
   </trkpt>
   <trkpt lat="50.59911500478501" lon="3.065129995694227">
    <ele>41.300000000000004</ele>
   </trkpt>
   <trkpt lat="50.59930000000001" lon="3.06619">
    <ele>41.14</ele>
   </trkpt>
   <trkpt lat="50.59951000276667" lon="3.0669899965343856">
    <ele>40.77</ele>
   </trkpt>
   <trkpt lat="50.599720000000005" lon="3.0677900000000005">
    <ele>40.75</ele>
   </trkpt>
   <trkpt lat="50.599990000000005" lon="3.0687">
    <ele>40.64</ele>
   </trkpt>
   <trkpt lat="50.600010000000005" lon="3.06883">
    <ele>40.64</ele>
   </trkpt>
   <trkpt lat="50.600030000000004" lon="3.06957">
    <ele>40.46</ele>
   </trkpt>
   <trkpt lat="50.60004500266914" lon="3.070359999635049">
    <ele>40.53</ele>
   </trkpt>
   <trkpt lat="50.600060000000006" lon="3.0711500000000003">
    <ele>40.800000000000004</ele>
   </trkpt>
   <trkpt lat="50.600080000000005" lon="3.0712400000000004">
    <ele>40.800000000000004</ele>
   </trkpt>
   <trkpt lat="50.6004450013586" lon="3.071814995451437">
    <ele>40.79</ele>
   </trkpt>
   <trkpt lat="50.60081" lon="3.0723900000000004">
    <ele>40.6</ele>
   </trkpt>
   <trkpt lat="50.60081" lon="3.0723800000000003">
    <ele>40.6</ele>
   </trkpt>
   <trkpt lat="50.60116000000001" lon="3.07295">
    <ele>41.660000000000004</ele>
   </trkpt>
   <trkpt lat="50.6013" lon="3.0731300000000004">
    <ele>41.660000000000004</ele>
   </trkpt>
   <trkpt lat="50.60176000076706" lon="3.0736099950795306">
    <ele>42.65</ele>
   </trkpt>
   <trkpt lat="50.60222" lon="3.0740900000000004">
    <ele>43.93</ele>
   </trkpt>
   <trkpt lat="50.60271" lon="3.07452">
    <ele>44.34</ele>
   </trkpt>
   <trkpt lat="50.603120000000004" lon="3.07473">
    <ele>43.10000000000001</ele>
   </trkpt>
   <trkpt lat="50.603390000000005" lon="3.0749000000000004">
    <ele>42.03</ele>
   </trkpt>
   <trkpt lat="50.603570000000005" lon="3.07505">
    <ele>42.03</ele>
   </trkpt>
   <trkpt lat="50.60374" lon="3.07525">
    <ele>41.39</ele>
   </trkpt>
   <trkpt lat="50.6043" lon="3.07602">
    <ele>40.080000000000005</ele>
   </trkpt>
   <trkpt lat="50.60445000000001" lon="3.0762">
    <ele>39.900000000000006</ele>
   </trkpt>
   <trkpt lat="50.604580000000006" lon="3.07629">
    <ele>39.68</ele>
   </trkpt>
   <trkpt lat="50.60484" lon="3.07663">
    <ele>39.550000000000004</ele>
   </trkpt>
   <trkpt lat="50.60492000000001" lon="3.07674">
    <ele>39.580000000000005</ele>
   </trkpt>
   <trkpt lat="50.60501000000001" lon="3.0769200000000003">
    <ele>39.7</ele>
   </trkpt>
   <trkpt lat="50.60528000000001" lon="3.0772500000000003">
    <ele>39.74</ele>
   </trkpt>
   <trkpt lat="50.60546" lon="3.07742">
    <ele>39.74</ele>
   </trkpt>
   <trkpt lat="50.605520000000006" lon="3.0774700000000004">
    <ele>39.74</ele>
   </trkpt>
   <trkpt lat="50.6056" lon="3.0775">
    <ele>39.339999999999996</ele>
   </trkpt>
   <trkpt lat="50.60567" lon="3.0775">
    <ele>39.339999999999996</ele>
   </trkpt>
   <trkpt lat="50.60577000000001" lon="3.0774500000000002">
    <ele>39.28</ele>
   </trkpt>
   <trkpt lat="50.60587" lon="3.0773300000000003">
    <ele>39.080000000000005</ele>
   </trkpt>
   <trkpt lat="50.6065050006896" lon="3.076940005239572">
    <ele>38.48</ele>
   </trkpt>
   <trkpt lat="50.60714" lon="3.07655">
    <ele>37.89</ele>
   </trkpt>
   <trkpt lat="50.60728" lon="3.0765200000000004">
    <ele>37.81</ele>
   </trkpt>
   <trkpt lat="50.607690000000005" lon="3.07627">
    <ele>37.35</ele>
   </trkpt>
   <trkpt lat="50.60788" lon="3.0762300000000002">
    <ele>37.06</ele>
   </trkpt>
   <trkpt lat="50.60843000048807" lon="3.075895003911401">
    <ele>36.18</ele>
   </trkpt>
   <trkpt lat="50.60898" lon="3.0755600000000003">
    <ele>34.84</ele>
   </trkpt>
   <trkpt lat="50.609460000000006" lon="3.07547">
    <ele>34.21</ele>
   </trkpt>
   <trkpt lat="50.60965" lon="3.0753800000000004">
    <ele>33.870000000000005</ele>
   </trkpt>
   <trkpt lat="50.61014" lon="3.07532">
    <ele>33.03</ele>
   </trkpt>
   <trkpt lat="50.610380000000006" lon="3.07534">
    <ele>32.82</ele>
   </trkpt>
   <trkpt lat="50.61106" lon="3.0752400000000004">
    <ele>32.260000000000005</ele>
   </trkpt>
   <trkpt lat="50.61162" lon="3.0751500000000003">
    <ele>31.73</ele>
   </trkpt>
   <trkpt lat="50.61182" lon="3.07507">
    <ele>31.48</ele>
   </trkpt>
   <trkpt lat="50.612710000110376" lon="3.074925002739969">
    <ele>30.62</ele>
   </trkpt>
   <trkpt lat="50.613600000000005" lon="3.07478">
    <ele>29.87</ele>
   </trkpt>
   <trkpt lat="50.613780000000006" lon="3.0747700000000004">
    <ele>29.87</ele>
   </trkpt>
   <trkpt lat="50.614180000000005" lon="3.07486">
    <ele>29.740000000000002</ele>
   </trkpt>
   <trkpt lat="50.61431" lon="3.07487">
    <ele>29.69</ele>
   </trkpt>
   <trkpt lat="50.61473" lon="3.0748">
    <ele>29.5</ele>
   </trkpt>
   <trkpt lat="50.61545" lon="3.0745600000000004">
    <ele>29.630000000000003</ele>
   </trkpt>
   <trkpt lat="50.615950000000005" lon="3.0743600000000004">
    <ele>29.880000000000003</ele>
   </trkpt>
   <trkpt lat="50.61643" lon="3.0742100000000003">
    <ele>29.94</ele>
   </trkpt>
   <trkpt lat="50.61693499998343" lon="3.0740650015874142">
    <ele>29.560000000000002</ele>
   </trkpt>
   <trkpt lat="50.61744" lon="3.07392">
    <ele>29.220000000000002</ele>
   </trkpt>
   <trkpt lat="50.61815000000001" lon="3.07369">
    <ele>28.450000000000003</ele>
   </trkpt>
   <trkpt lat="50.61827" lon="3.0735900000000003">
    <ele>28.470000000000002</ele>
   </trkpt>
   <trkpt lat="50.61833000000001" lon="3.0735200000000003">
    <ele>28.520000000000003</ele>
   </trkpt>
   <trkpt lat="50.618945000267786" lon="3.0733250025165795">
    <ele>28.090000000000003</ele>
   </trkpt>
   <trkpt lat="50.61956000000001" lon="3.0731300000000004">
    <ele>28.0</ele>
   </trkpt>
   <trkpt lat="50.620200000477936" lon="3.072885003249458">
    <ele>27.650000000000002</ele>
   </trkpt>
   <trkpt lat="50.62084" lon="3.0726400000000003">
    <ele>27.540000000000003</ele>
   </trkpt>
   <trkpt lat="50.621390000342686" lon="3.072365003206681">
    <ele>27.270000000000003</ele>
   </trkpt>
   <trkpt lat="50.62194" lon="3.07209">
    <ele>27.15</ele>
   </trkpt>
   <trkpt lat="50.622110000000006" lon="3.0719900000000004">
    <ele>27.15</ele>
   </trkpt>
   <trkpt lat="50.622260000000004" lon="3.0718500000000004">
    <ele>27.13</ele>
   </trkpt>
   <trkpt lat="50.62252" lon="3.0713700000000004">
    <ele>27.000000000000004</ele>
   </trkpt>
   <trkpt lat="50.62309000509116" lon="3.0702800131995374">
    <ele>26.730000000000004</ele>
   </trkpt>
   <trkpt lat="50.62366" lon="3.0691900000000003">
    <ele>26.560000000000002</ele>
   </trkpt>
   <trkpt lat="50.62422" lon="3.06816">
    <ele>26.590000000000003</ele>
   </trkpt>
   <trkpt lat="50.62429" lon="3.0681900000000004">
    <ele>26.500000000000004</ele>
   </trkpt>
   <trkpt lat="50.62438" lon="3.0681100000000003">
    <ele>26.44</ele>
   </trkpt>
   <trkpt lat="50.62444000000001" lon="3.06836">
    <ele>26.310000000000002</ele>
   </trkpt>
   <trkpt lat="50.6244" lon="3.0689400000000004">
    <ele>26.480000000000004</ele>
   </trkpt>
   <trkpt lat="50.62449" lon="3.06895">
    <ele>27.06</ele>
   </trkpt>
   <trkpt lat="50.62458" lon="3.06909">
    <ele>27.26</ele>
   </trkpt>
   <trkpt lat="50.624520000000004" lon="3.0696000000000003">
    <ele>27.540000000000003</ele>
   </trkpt>
   <trkpt lat="50.625390000043524" lon="3.069575001386676">
    <ele>27.83</ele>
   </trkpt>
   <trkpt lat="50.62626000008171" lon="3.069550001848263">
    <ele>27.8</ele>
   </trkpt>
   <trkpt lat="50.62713000011454" lon="3.0695250013846986">
    <ele>27.48</ele>
   </trkpt>
   <trkpt lat="50.62800000000001" lon="3.0695">
    <ele>26.97</ele>
   </trkpt>
   <trkpt lat="50.62800000000001" lon="3.0695900000000003">
    <ele>26.88</ele>
   </trkpt>
   <trkpt lat="50.62820000000001" lon="3.06958">
    <ele>26.69</ele>
   </trkpt>
   <trkpt lat="50.62821" lon="3.06971">
    <ele>26.340000000000003</ele>
   </trkpt>
   <trkpt lat="50.628280000000004" lon="3.0697">
    <ele>26.38</ele>
   </trkpt>
   <trkpt lat="50.62846836958813" lon="3.071001640606223">
    <ele>26.560000000000002</ele>
   </trkpt>
   <trkpt lat="50.62865672467532" lon="3.0723032916422146">
    <ele>27.06</ele>
   </trkpt>
   <trkpt lat="50.628845065261324" lon="3.0736049531073246">
    <ele>27.35</ele>
   </trkpt>
   <trkpt lat="50.62903339134598" lon="3.074906625000904">
    <ele>27.89</ele>
   </trkpt>
   <trkpt lat="50.62922170292903" lon="3.076208307322304">
    <ele>28.67</ele>
   </trkpt>
   <trkpt lat="50.62941000000001" lon="3.07751">
    <ele>29.68</ele>
   </trkpt>
   <trkpt lat="50.62944" lon="3.0775">
    <ele>29.68</ele>
   </trkpt>
   <trkpt lat="50.62970000000001" lon="3.0776700000000003">
    <ele>29.77</ele>
   </trkpt>
   <trkpt lat="50.62971" lon="3.0777500000000004">
    <ele>29.77</ele>
   </trkpt>
   <trkpt lat="50.629760000000005" lon="3.0777300000000003">
    <ele>29.720000000000002</ele>
   </trkpt>
   <trkpt lat="50.63052500189654" lon="3.0773475186635446">
    <ele>28.96</ele>
   </trkpt>
   <trkpt lat="50.63129000254098" lon="3.0769650248791045">
    <ele>28.220000000000002</ele>
   </trkpt>
   <trkpt lat="50.63205500193324" lon="3.0765825186459566">
    <ele>27.82</ele>
   </trkpt>
   <trkpt lat="50.63282" lon="3.0762">
    <ele>27.770000000000003</ele>
   </trkpt>
   <trkpt lat="50.633230000000005" lon="3.07609">
    <ele>28.28</ele>
   </trkpt>
   <trkpt lat="50.63329" lon="3.07608">
    <ele>28.37</ele>
   </trkpt>
   <trkpt lat="50.633350002164335" lon="3.075370000821506">
    <ele>27.31</ele>
   </trkpt>
   <trkpt lat="50.633410000000005" lon="3.07466">
    <ele>26.6</ele>
   </trkpt>
   <trkpt lat="50.63342" lon="3.07458">
    <ele>26.51</ele>
   </trkpt>
   <trkpt lat="50.63345" lon="3.0745400000000003">
    <ele>26.430000000000003</ele>
   </trkpt>
   <trkpt lat="50.633410000000005" lon="3.0743400000000003">
    <ele>26.42</ele>
   </trkpt>
   <trkpt lat="50.63336" lon="3.0742100000000003">
    <ele>26.98</ele>
   </trkpt>
   <trkpt lat="50.633136676027426" lon="3.0731633233168547">
    <ele>26.680000000000003</ele>
   </trkpt>
   <trkpt lat="50.63291334267886" lon="3.07211665657894">
    <ele>26.410000000000004</ele>
   </trkpt>
   <trkpt lat="50.632690000000004" lon="3.07107">
    <ele>26.650000000000002</ele>
   </trkpt>
   <trkpt lat="50.63270000000001" lon="3.0709000000000004">
    <ele>26.7</ele>
   </trkpt>
   <trkpt lat="50.63268000000001" lon="3.0707400000000002">
    <ele>26.770000000000003</ele>
   </trkpt>
   <trkpt lat="50.632650000000005" lon="3.0706200000000003">
    <ele>26.98</ele>
   </trkpt>
   <trkpt lat="50.63257" lon="3.0704900000000004">
    <ele>27.000000000000004</ele>
   </trkpt>
   <trkpt lat="50.632340004799865" lon="3.0694299947754224">
    <ele>27.6</ele>
   </trkpt>
   <trkpt lat="50.632110000000004" lon="3.0683700000000003">
    <ele>27.580000000000002</ele>
   </trkpt>
   <trkpt lat="50.632090000000005" lon="3.0683800000000003">
    <ele>27.580000000000002</ele>
   </trkpt>
   <trkpt lat="50.63208" lon="3.0682500000000004">
    <ele>27.44</ele>
   </trkpt>
   <trkpt lat="50.63264" lon="3.0681000000000003">
    <ele>27.19</ele>
   </trkpt>
   <trkpt lat="50.63315500012678" lon="3.0680500005365112">
    <ele>27.01</ele>
   </trkpt>
   <trkpt lat="50.63367" lon="3.068">
    <ele>26.7</ele>
   </trkpt>
   <trkpt lat="50.63391000000001" lon="3.06794">
    <ele>26.53</ele>
   </trkpt>
   <trkpt lat="50.63443" lon="3.06775">
    <ele>25.68</ele>
   </trkpt>
   <trkpt lat="50.634710000000005" lon="3.0685700000000002">
    <ele>25.02</ele>
   </trkpt>
   <trkpt lat="50.6351" lon="3.0693900000000003">
    <ele>24.830000000000002</ele>
   </trkpt>
   <trkpt lat="50.635290000000005" lon="3.0697200000000002">
    <ele>24.98</ele>
   </trkpt>
   <trkpt lat="50.635690000000004" lon="3.0703">
    <ele>24.6</ele>
   </trkpt>
   <trkpt lat="50.63595" lon="3.0698600000000003">
    <ele>24.17</ele>
   </trkpt>
   <trkpt lat="50.636210000000005" lon="3.0695200000000002">
    <ele>24.270000000000003</ele>
   </trkpt>
   <trkpt lat="50.63638" lon="3.06942">
    <ele>24.62</ele>
   </trkpt>
   <trkpt lat="50.636480000000006" lon="3.0693900000000003">
    <ele>24.62</ele>
   </trkpt>
   <trkpt lat="50.6366" lon="3.0694000000000004">
    <ele>24.44</ele>
   </trkpt>
   <trkpt lat="50.636610000000005" lon="3.0694000000000004">
    <ele>24.43</ele>
   </trkpt>
   <trkpt lat="50.63674251408971" lon="3.0683525088285464">
    <ele>24.16</ele>
   </trkpt>
   <trkpt lat="50.63687501878893" lon="3.067305011750813">
    <ele>23.75</ele>
   </trkpt>
   <trkpt lat="50.63700751409752" lon="3.066257508767159">
    <ele>24.060000000000002</ele>
   </trkpt>
   <trkpt lat="50.63714" lon="3.0652100000000004">
    <ele>24.23</ele>
   </trkpt>
   <trkpt lat="50.63712" lon="3.0651">
    <ele>24.23</ele>
   </trkpt>
   <trkpt lat="50.637060000000005" lon="3.06497">
    <ele>24.150000000000002</ele>
   </trkpt>
   <trkpt lat="50.63669" lon="3.06416">
    <ele>24.19</ele>
   </trkpt>
   <trkpt lat="50.636750000000006" lon="3.0639200000000004">
    <ele>23.930000000000003</ele>
   </trkpt>
   <trkpt lat="50.63725" lon="3.0633500000000002">
    <ele>23.610000000000003</ele>
   </trkpt>
   <trkpt lat="50.637280000000004" lon="3.0632500000000005">
    <ele>23.650000000000002</ele>
   </trkpt>
   <trkpt lat="50.637260000000005" lon="3.0631000000000004">
    <ele>23.650000000000002</ele>
   </trkpt>
   <trkpt lat="50.63681169055698" lon="3.0620432829394257">
    <ele>23.07</ele>
   </trkpt>
   <trkpt lat="50.63636337155752" lon="3.060986586037147">
    <ele>22.930000000000003</ele>
   </trkpt>
   <trkpt lat="50.635915043001994" lon="3.0599299092928884">
    <ele>23.07</ele>
   </trkpt>
   <trkpt lat="50.63546670489073" lon="3.0588732527063733">
    <ele>22.98</ele>
   </trkpt>
   <trkpt lat="50.63501835722406" lon="3.057816616277324">
    <ele>22.990000000000002</ele>
   </trkpt>
   <trkpt lat="50.634570000000004" lon="3.05676">
    <ele>23.48</ele>
   </trkpt>
   <trkpt lat="50.634570000000004" lon="3.05677">
    <ele>23.51</ele>
   </trkpt>
   <trkpt lat="50.634005013417216" lon="3.0577925368786754">
    <ele>23.900000000000002</ele>
   </trkpt>
   <trkpt lat="50.63344001788614" lon="3.0588150491769652">
    <ele>24.19</ele>
   </trkpt>
   <trkpt lat="50.63287501340711" lon="3.059837536895566">
    <ele>24.330000000000002</ele>
   </trkpt>
   <trkpt lat="50.632310000000004" lon="3.0608600000000004">
    <ele>24.44</ele>
   </trkpt>
   <trkpt lat="50.632250000000006" lon="3.0607800000000003">
    <ele>24.07</ele>
   </trkpt>
   <trkpt lat="50.63174001810839" lon="3.0617000499070355">
    <ele>24.57</ele>
   </trkpt>
   <trkpt lat="50.63123002897217" lon="3.0626200798521253">
    <ele>24.48</ele>
   </trkpt>
   <trkpt lat="50.63072003259163" lon="3.0635400898357825">
    <ele>24.85</ele>
   </trkpt>
   <trkpt lat="50.6302100289671" lon="3.0644600798585193">
    <ele>25.26</ele>
   </trkpt>
   <trkpt lat="50.62970001809881" lon="3.0653800499208463">
    <ele>25.68</ele>
   </trkpt>
   <trkpt lat="50.62919" lon="3.0663000000000005">
    <ele>26.1</ele>
   </trkpt>
   <trkpt lat="50.62897" lon="3.0666900000000004">
    <ele>26.340000000000003</ele>
   </trkpt>
   <trkpt lat="50.629540000000006" lon="3.0674900000000003">
    <ele>26.930000000000003</ele>
   </trkpt>
   <trkpt lat="50.62961000000001" lon="3.06829">
    <ele>26.62</ele>
   </trkpt>
   <trkpt lat="50.62962" lon="3.06836">
    <ele>26.650000000000002</ele>
   </trkpt>
   <trkpt lat="50.62957" lon="3.0683700000000003">
    <ele>26.650000000000002</ele>
   </trkpt>
   <trkpt lat="50.629490000000004" lon="3.06842">
    <ele>26.64</ele>
   </trkpt>
   <trkpt lat="50.62942" lon="3.0685000000000002">
    <ele>26.570000000000004</ele>
   </trkpt>
   <trkpt lat="50.62932000000001" lon="3.0687900000000004">
    <ele>26.54</ele>
   </trkpt>
   <trkpt lat="50.629270000000005" lon="3.06883">
    <ele>26.67</ele>
   </trkpt>
   <trkpt lat="50.629220000000004" lon="3.06883">
    <ele>26.67</ele>
   </trkpt>
   <trkpt lat="50.62873999988536" lon="3.0688750004709875">
    <ele>26.62</ele>
   </trkpt>
   <trkpt lat="50.628260000000004" lon="3.0689200000000003">
    <ele>26.900000000000002</ele>
   </trkpt>
   <trkpt lat="50.62823" lon="3.06889">
    <ele>26.900000000000002</ele>
   </trkpt>
   <trkpt lat="50.62821" lon="3.0687800000000003">
    <ele>27.090000000000003</ele>
   </trkpt>
   <trkpt lat="50.628190000000004" lon="3.0685200000000004">
    <ele>27.17</ele>
   </trkpt>
   <trkpt lat="50.62821" lon="3.0687800000000003">
    <ele>27.090000000000003</ele>
   </trkpt>
   <trkpt lat="50.62823" lon="3.06889">
    <ele>26.900000000000002</ele>
   </trkpt>
   <trkpt lat="50.628260000000004" lon="3.0689200000000003">
    <ele>26.900000000000002</ele>
   </trkpt>
   <trkpt lat="50.62825" lon="3.06827">
    <ele>27.000000000000004</ele>
   </trkpt>
   <trkpt lat="50.628150000000005" lon="3.0682600000000004">
    <ele>27.14</ele>
   </trkpt>
   <trkpt lat="50.62818000000001" lon="3.0681200000000004">
    <ele>27.020000000000003</ele>
   </trkpt>
   <trkpt lat="50.6287128807336" lon="3.0671614937600338">
    <ele>26.54</ele>
   </trkpt>
   <trkpt lat="50.62924575360382" lon="3.0662029657921432">
    <ele>25.980000000000004</ele>
   </trkpt>
   <trkpt lat="50.62977861861032" lon="3.0652444160957453">
    <ele>25.57</ele>
   </trkpt>
   <trkpt lat="50.630311475752755" lon="3.0642858446702554">
    <ele>25.26</ele>
   </trkpt>
   <trkpt lat="50.63084432503083" lon="3.06332725151509">
    <ele>24.630000000000003</ele>
   </trkpt>
   <trkpt lat="50.63137716644421" lon="3.0623686366296656">
    <ele>24.450000000000003</ele>
   </trkpt>
   <trkpt lat="50.631910000000005" lon="3.0614100000000004">
    <ele>24.520000000000003</ele>
   </trkpt>
   <trkpt lat="50.63196000000001" lon="3.0614800000000004">
    <ele>24.87</ele>
   </trkpt>
   <trkpt lat="50.63249447621526" lon="3.060516754281209">
    <ele>24.360000000000003</ele>
   </trkpt>
   <trkpt lat="50.63302894448937" lon="3.0595534866587326">
    <ele>24.330000000000002</ele>
   </trkpt>
   <trkpt lat="50.63356340482201" lon="3.058590197131982">
    <ele>24.1</ele>
   </trkpt>
   <trkpt lat="50.634097857212865" lon="3.0576268857003686">
    <ele>23.900000000000002</ele>
   </trkpt>
   <trkpt lat="50.63463230166156" lon="3.056663552363303">
    <ele>23.48</ele>
   </trkpt>
   <trkpt lat="50.63516673816781" lon="3.0557001971201947">
    <ele>23.470000000000002</ele>
   </trkpt>
   <trkpt lat="50.63570116673127" lon="3.054736819970456">
    <ele>23.4</ele>
   </trkpt>
   <trkpt lat="50.63623558735158" lon="3.0537734209134966">
    <ele>23.500000000000004</ele>
   </trkpt>
   <trkpt lat="50.636770000000006" lon="3.0528100000000005">
    <ele>23.46</ele>
   </trkpt>
   <trkpt lat="50.6373" lon="3.0518400000000003">
    <ele>23.67</ele>
   </trkpt>
   <trkpt lat="50.637420000000006" lon="3.0515700000000003">
    <ele>23.28</ele>
   </trkpt>
   <trkpt lat="50.637460000000004" lon="3.0514900000000003">
    <ele>23.28</ele>
   </trkpt>
   <trkpt lat="50.637730000000005" lon="3.0511500000000003">
    <ele>23.31</ele>
   </trkpt>
   <trkpt lat="50.638270000000006" lon="3.0507600000000004">
    <ele>22.410000000000004</ele>
   </trkpt>
   <trkpt lat="50.63835" lon="3.0509600000000003">
    <ele>21.95</ele>
   </trkpt>
   <trkpt lat="50.63903500012206" lon="3.0508950009375164">
    <ele>22.0</ele>
   </trkpt>
   <trkpt lat="50.639720000000004" lon="3.0508300000000004">
    <ele>21.26</ele>
   </trkpt>
  </trkseg>
 </trk>
</gpx>
