{"type":"Feature","properties":{"name":"Marathon de Lille 2026 ⚜️🇫🇷","source":"Marathon de Lille.gpx","length_m":42188,"n_points":975},"geometry":{"type":"LineString","coordinates":[[3.068723,50.628172],[3.069322,50.628187],[3.06959,50.628201],[3.069713,50.628218],[3.069705,50.628292],[3.069821,50.628304],[3.071317,50.628527],[3.077517,50.629419],[3.077517,50.62941],[3.07751,50.62941],[3.07773,50.6295],[3.07775,50.62954],[3.07775,50.62955],[3.07775,50.62971],[3.077363,50.630488],[3.076975,50.631265],[3.076588,50.632043],[3.0762,50.63282],[3.0761,50.63314],[3.07608,50.63329],[3.076086,50.63329],[3.076086,50.633295],[3.0756,50.633336],[3.074755,50.63341],[3.074635,50.633421],[3.074588,50.633428],[3.074536,50.633389],[3.074448,50.633355],[3.073749,50.633205],[3.071158,50.632645],[3.070907,50.632592],[3.070776,50.632564],[3.070525,50.632512],[3.069676,50.632327],[3.068279,50.632023],[3.068262,50.632019],[3.068245,50.632118],[3.068108,50.632641],[3.0681,50.63264],[3.06805,50.633155],[3.068,50.63367],[3.06794,50.63391],[3.06775,50.63443],[3.06857,50.63471],[3.06939,50.6351],[3.06972,50.63529],[3.07029,50.63569],[3.0703,50.63569],[3.06986,50.63595],[3.06952,50.63621],[3.06942,50.63638],[3.06939,50.63648],[3.0694,50.63661],[3.06835,50.636743],[3.0673,50.636875],[3.06625,50.637008],[3.0652,50.63714],[3.06519,50.63714],[3.06497,50.63706],[3.06416,50.63669],[3.06392,50.63675],[3.06335,50.63725],[3.06325,50.63728],[3.06324,50.63728],[3.0631,50.63726],[3.062045,50.636812],[3.06099,50.636363],[3.059935,50.635915],[3.05888,50.635467],[3.057825,50.635018],[3.05677,50.63457],[3.05657,50.63468],[3.055624,50.635204],[3.054678,50.635728],[3.053732,50.636252],[3.052786,50.636776],[3.05184,50.6373],[3.051849,50.637307],[3.051754,50.637356],[3.051637,50.637399],[3.051636,50.637397],[3.051637,50.637399],[3.051483,50.637242],[3.050085,50.63587],[3.049931,50.635721],[3.049013,50.634835],[3.048694,50.634509],[3.04866,50.634475],[3.048452,50.634578],[3.047798,50.634912],[3.046862,50.635412],[3.04643,50.63565],[3.046341,50.635713],[3.046255,50.635776],[3.045344,50.636252],[3.045347,50.636254],[3.045276,50.636203],[3.044852,50.636424],[3.04476,50.636462],[3.044672,50.636465],[3.044371,50.636434],[3.04319,50.636221],[3.042762,50.63614],[3.041343,50.635834],[3.041344,50.63583],[3.04134,50.63583],[3.041344,50.63583],[3.041343,50.635834],[3.040986,50.635741],[3.04066,50.635451],[3.040433,50.635281],[3.040122,50.634982],[3.039758,50.634712],[3.037942,50.633058],[3.037359,50.632517],[3.037062,50.632211],[3.036618,50.631821],[3.036043,50.631283],[3.036006,50.631244],[3.035763,50.630985],[3.035216,50.630484],[3.035111,50.630405],[3.035103,50.630398],[3.035245,50.630301],[3.035421,50.630153],[3.035685,50.629912],[3.036443,50.629292],[3.037838,50.628178],[3.038769,50.627429],[3.039163,50.627097],[3.039811,50.626583],[3.040222,50.626586],[3.040569,50.626589],[3.040709,50.626691],[3.041857,50.627836],[3.04194,50.627772],[3.042005,50.627723],[3.042271,50.62776],[3.042402,50.627815],[3.042443,50.627852],[3.042793,50.628193],[3.043171,50.628563],[3.043454,50.628839],[3.043523,50.628898],[3.043619,50.628951],[3.04362,50.62895],[3.043619,50.628951],[3.043623,50.628953],[3.043481,50.629042],[3.043377,50.629105],[3.043324,50.629136],[3.043781,50.629582],[3.044421,50.63021],[3.044817,50.630598],[3.045746,50.631509],[3.045871,50.631632],[3.046384,50.632128],[3.046927,50.632656],[3.047476,50.633203],[3.047492,50.63319],[3.047476,50.633203],[3.047895,50.633603],[3.048332,50.63403],[3.048737,50.634431],[3.04874,50.63443],[3.048737,50.634431],[3.048742,50.634435],[3.048811,50.6344],[3.049656,50.63395],[3.049888,50.633826],[3.050305,50.633603],[3.050428,50.633537],[3.050424,50.633534],[3.050428,50.633537],[3.050561,50.633467],[3.051155,50.633153],[3.052107,50.632647],[3.05294,50.632209],[3.053576,50.631876],[3.054225,50.631533],[3.054742,50.631262],[3.055172,50.631034],[3.055896,50.630649],[3.056396,50.630385],[3.056553,50.630303],[3.056771,50.630201],[3.057127,50.630011],[3.057785,50.629662],[3.057786,50.629662],[3.057785,50.629662],[3.05831,50.62938],[3.058313,50.629382],[3.05831,50.62938],[3.058732,50.629158],[3.058962,50.629038],[3.058985,50.629026],[3.058952,50.629001],[3.058616,50.628745],[3.05827,50.628481],[3.058237,50.628449],[3.056458,50.626267],[3.054148,50.623408],[3.053968,50.62326],[3.053861,50.623215],[3.053767,50.6232],[3.05373,50.623186],[3.05366,50.623133],[3.053634,50.623069],[3.053647,50.623015],[3.053665,50.62299],[3.053666,50.622918],[3.053651,50.622872],[3.053538,50.622653],[3.05181,50.62052],[3.052439,50.620162],[3.052864,50.619921],[3.053376,50.619616],[3.053472,50.619535],[3.05352,50.619481],[3.053726,50.619548],[3.054989,50.619972],[3.056351,50.620433],[3.057883,50.620946],[3.061241,50.622085],[3.063879,50.622971],[3.064864,50.6233],[3.066312,50.623786],[3.067919,50.62432],[3.067982,50.624253],[3.068206,50.624142],[3.068204,50.624139],[3.0682,50.62414],[3.06779,50.62338],[3.06738,50.62262],[3.06728,50.62247],[3.0669,50.622],[3.06652,50.62153],[3.06602,50.620967],[3.06552,50.620403],[3.06502,50.61984],[3.0648,50.61958],[3.064475,50.61917],[3.06415,50.61876],[3.06394,50.61844],[3.06364,50.6179],[3.063644,50.617899],[3.063576,50.617766],[3.063513,50.617537],[3.063523,50.617538],[3.063513,50.617537],[3.063482,50.617475],[3.063387,50.617316],[3.063338,50.617237],[3.063072,50.616715],[3.063087,50.616693],[3.063003,50.616522],[3.062791,50.616145],[3.062739,50.616007],[3.062711,50.615557],[3.062693,50.615274],[3.062662,50.614155],[3.062655,50.613892],[3.062643,50.613768],[3.062634,50.613691],[3.062595,50.613596],[3.062389,50.613198],[3.061454,50.611481],[3.060654,50.610001],[3.060505,50.609789],[3.059735,50.608332],[3.058725,50.606489],[3.05872,50.60649],[3.058725,50.606489],[3.058529,50.606183],[3.058344,50.605941],[3.057803,50.605277],[3.055739,50.602756],[3.055081,50.601916],[3.054922,50.601637],[3.054711,50.601362],[3.054434,50.601009],[3.054257,50.600827],[3.05329,50.59956],[3.053304,50.599576],[3.053208,50.599606],[3.051803,50.600045],[3.051801,50.60004],[3.0518,50.60004],[3.05107,50.60018],[3.05034,50.60027],[3.04941,50.60031],[3.048705,50.600365],[3.048,50.60042],[3.04716,50.60043],[3.04682,50.60046],[3.04636,50.60054],[3.045705,50.60074],[3.04505,50.60094],[3.04382,50.60128],[3.04293,50.601445],[3.04204,50.60161],[3.042043,50.601619],[3.041622,50.601657],[3.041312,50.601666],[3.040824,50.601653],[3.040509,50.601669],[3.039477,50.601792],[3.036503,50.602167],[3.035624,50.602271],[3.034989,50.602312],[3.034394,50.602335],[3.032505,50.602567],[3.032156,50.602626],[3.031868,50.602694],[3.0316,50.602776],[3.029408,50.603595],[3.028761,50.603804],[3.028695,50.603825],[3.028283,50.603907],[3.028125,50.603921],[3.02808,50.603907],[3.028051,50.603897],[3.027968,50.603891],[3.027812,50.603821],[3.02763,50.603717],[3.027588,50.603685],[3.027412,50.603548],[3.02729,50.603471],[3.027169,50.603409],[3.025484,50.60209],[3.024248,50.60116],[3.023502,50.600602],[3.023358,50.600476],[3.023096,50.600221],[3.022913,50.600062],[3.022792,50.599929],[3.022651,50.599836],[3.022536,50.599779],[3.022353,50.599695],[3.021796,50.599353],[3.021511,50.599206],[3.021276,50.599106],[3.021026,50.599022],[3.020931,50.598992],[3.020577,50.598903],[3.020223,50.598843],[3.020009,50.59882],[3.019777,50.598804],[3.019555,50.598797],[3.019225,50.598805],[3.018812,50.598845],[3.018521,50.598893],[3.018186,50.59897],[3.017847,50.599077],[3.017132,50.599361],[3.016818,50.599486],[3.016154,50.59975],[3.014043,50.600595],[3.013724,50.600713],[3.013399,50.600804],[3.013063,50.600869],[3.012705,50.600913],[3.012343,50.600932],[3.012035,50.600911],[3.01182,50.600883],[3.011207,50.600761],[3.010813,50.600666],[3.010627,50.600602],[3.01054,50.600556],[3.010353,50.600437],[3.010302,50.600404],[3.010166,50.600346],[3.010097,50.600316],[3.009703,50.600057],[3.009279,50.599722],[3.009017,50.599554],[3.008883,50.599481],[3.008644,50.599371],[3.008456,50.599298],[3.008147,50.599201],[3.007956,50.59915],[3.007746,50.59911],[3.007294,50.599045],[3.007125,50.599036],[3.007016,50.59903],[3.00668,50.598992],[3.004218,50.598714],[3.003736,50.598633],[3.00369,50.598605],[3.003644,50.598552],[3.003623,50.598474],[3.003625,50.598415],[3.003632,50.598409],[3.003625,50.598415],[3.003649,50.598343],[3.004009,50.598056],[3.004267,50.597832],[3.004833,50.597301],[3.00521,50.596975],[3.005417,50.596813],[3.005752,50.596555],[3.005861,50.596477],[3.006386,50.596137],[3.007418,50.59555],[3.008737,50.594876],[3.009072,50.594691],[3.009453,50.594462],[3.009802,50.594227],[3.010123,50.593995],[3.010272,50.593867],[3.010389,50.593729],[3.010465,50.593624],[3.010543,50.59347],[3.01058,50.593346],[3.010598,50.593218],[3.010597,50.593083],[3.010579,50.592973],[3.010568,50.592899],[3.010494,50.592715],[3.010425,50.592594],[3.010258,50.592369],[3.00984,50.591876],[3.009652,50.591652],[3.008413,50.590158],[3.008114,50.589718],[3.007982,50.589461],[3.007937,50.589339],[3.007911,50.589231],[3.007897,50.58908],[3.007897,50.588938],[3.007897,50.588915],[3.007937,50.588718],[3.007972,50.58863],[3.008045,50.588448],[3.00815,50.588255],[3.008469,50.587794],[3.009154,50.586972],[3.00934,50.586786],[3.009373,50.586753],[3.009669,50.586543],[3.010384,50.586135],[3.01129,50.585631],[3.011444,50.585538],[3.01164,50.585401],[3.011804,50.585259],[3.011958,50.585088],[3.012066,50.584939],[3.012378,50.584481],[3.012569,50.58419],[3.012611,50.584109],[3.012691,50.583896],[3.012715,50.583765],[3.012716,50.583566],[3.012682,50.583375],[3.012647,50.583268],[3.01257,50.583118],[3.012466,50.582954],[3.012467,50.582954],[3.012326,50.582732],[3.012221,50.582528],[3.012177,50.582353],[3.012133,50.582034],[3.012112,50.581944],[3.012069,50.581844],[3.011971,50.581704],[3.011481,50.581203],[3.011414,50.581106],[3.011367,50.581014],[3.011342,50.580921],[3.011345,50.580766],[3.011396,50.580619],[3.011459,50.580522],[3.011507,50.580463],[3.0115,50.58046],[3.01157,50.58039],[3.01235,50.57978],[3.01313,50.57917],[3.01391,50.57856],[3.01469,50.57795],[3.01493,50.57781],[3.01529,50.57769],[3.01606,50.57747],[3.01656,50.57738],[3.01682,50.57714],[3.017295,50.576755],[3.01777,50.57637],[3.01797,50.57618],[3.01801,50.57611],[3.018,50.57605],[3.01792,50.57597],[3.01783,50.57591],[3.01779,50.57584],[3.0177,50.57534],[3.01765,50.57482],[3.01768,50.57473],[3.01771,50.57452],[3.01771,50.57451],[3.01765,50.5744],[3.01766,50.57432],[3.01767,50.57422],[3.017674,50.574219],[3.017642,50.574161],[3.017356,50.573837],[3.017209,50.573618],[3.015582,50.570666],[3.015381,50.570445],[3.015321,50.570396],[3.015253,50.570363],[3.015153,50.570351],[3.015093,50.570332],[3.015041,50.570305],[3.015005,50.570272],[3.014985,50.570254],[3.014958,50.570193],[3.014958,50.570151],[3.014983,50.570092],[3.015037,50.570041],[3.015043,50.569968],[3.015031,50.569914],[3.01493,50.569678],[3.014402,50.568888],[3.014265,50.568734],[3.014135,50.568623],[3.01414,50.56862],[3.014135,50.568623],[3.013949,50.568495],[3.013721,50.568369],[3.013159,50.568118],[3.01287,50.567968],[3.012648,50.567828],[3.010499,50.566302],[3.00856,50.564962],[3.007664,50.564354],[3.007441,50.564143],[3.007377,50.564105],[3.007305,50.564062],[3.007104,50.563973],[3.00697,50.563905],[3.006434,50.563602],[3.004186,50.562364],[3.003391,50.561936],[3.003386,50.561933],[3.00339,50.56193],[3.00424,50.5616],[3.00509,50.56127],[3.00594,50.56094],[3.00662,50.56066],[3.0073,50.56038],[3.008005,50.56001],[3.00871,50.55964],[3.00901,50.55951],[3.00928,50.55943],[3.01043,50.5592],[3.01158,50.55897],[3.01245,50.5587],[3.01324,50.55824],[3.01381,50.55785],[3.014405,50.5574],[3.015,50.55695],[3.01515,50.55682],[3.01558,50.55635],[3.01594,50.55601],[3.01632,50.55577],[3.017337,50.5553],[3.018353,50.55483],[3.01937,50.55436],[3.020343,50.5539],[3.021317,50.55344],[3.02229,50.55298],[3.0231,50.55255],[3.02391,50.55212],[3.02431,50.55189],[3.02511,50.551285],[3.02591,50.55068],[3.026645,50.55023],[3.02738,50.54978],[3.02776,50.54957],[3.02892,50.54907],[3.028919,50.54907],[3.029229,50.549373],[3.029462,50.549609],[3.029657,50.549811],[3.029852,50.550063],[3.030567,50.551068],[3.030759,50.551352],[3.031041,50.551752],[3.031042,50.551752],[3.031265,50.55207],[3.031442,50.55237],[3.031751,50.552917],[3.03183,50.553119],[3.032041,50.553705],[3.032165,50.554046],[3.032218,50.554196],[3.032322,50.554486],[3.032455,50.554858],[3.032595,50.55526],[3.032658,50.555441],[3.032692,50.555536],[3.032746,50.555593],[3.032776,50.555651],[3.032838,50.555828],[3.032958,50.556133],[3.033031,50.556314],[3.033236,50.556918],[3.033332,50.557185],[3.033464,50.557406],[3.033546,50.557479],[3.033622,50.557514],[3.033706,50.557535],[3.033768,50.55754],[3.033792,50.557539],[3.033862,50.557534],[3.033956,50.557539],[3.034089,50.557568],[3.034205,50.557621],[3.034294,50.557697],[3.034331,50.557756],[3.034349,50.55785],[3.034321,50.557943],[3.0343,50.557967],[3.034249,50.558026],[3.03418,50.558072],[3.034132,50.558139],[3.03411,50.558261],[3.034114,50.55829],[3.034147,50.558392],[3.034236,50.558502],[3.034364,50.558623],[3.035026,50.559115],[3.035197,50.55924],[3.035302,50.559318],[3.035565,50.559563],[3.035658,50.55963],[3.036198,50.560018],[3.036197,50.560018],[3.0363,50.560092],[3.036549,50.560272],[3.037246,50.560785],[3.038613,50.561876],[3.039072,50.562263],[3.039288,50.562457],[3.03953,50.562675],[3.039928,50.563036],[3.040531,50.563597],[3.040669,50.563745],[3.041017,50.564142],[3.041432,50.5647],[3.041699,50.56507],[3.041939,50.565395],[3.041987,50.565455],[3.042069,50.565499],[3.042422,50.566025],[3.042698,50.566435],[3.042834,50.566652],[3.043763,50.567995],[3.044878,50.569676],[3.045107,50.570039],[3.046099,50.571678],[3.0461,50.571678],[3.046398,50.57216],[3.04697,50.573022],[3.047461,50.573749],[3.047778,50.57425],[3.048169,50.57499],[3.04817,50.57499],[3.048169,50.57499],[3.048172,50.574995],[3.048425,50.575406],[3.048639,50.575838],[3.048675,50.575941],[3.048716,50.576114],[3.049152,50.577135],[3.049517,50.578029],[3.04951,50.57803],[3.04965,50.57859],[3.04979,50.57915],[3.04992,50.5795],[3.05007,50.580105],[3.05022,50.58071],[3.05036,50.581175],[3.0505,50.58164],[3.05064,50.58196],[3.05087,50.58264],[3.0511,50.58332],[3.05119,50.58378],[3.05119,50.58396],[3.05136,50.58475],[3.05152,50.58527],[3.05168,50.58579],[3.05172,50.58596],[3.05176,50.58635],[3.05174,50.58666],[3.05177,50.58679],[3.05177,50.5869],[3.05172,50.58717],[3.05159,50.58761],[3.051415,50.588405],[3.05124,50.5892],[3.05121,50.58942],[3.0512,50.59018],[3.05115,50.591075],[3.0511,50.59197],[3.05109,50.59263],[3.051095,50.593345],[3.0511,50.59406],[3.051105,50.594775],[3.05111,50.59549],[3.05113,50.59579],[3.05121,50.5966],[3.05135,50.5972],[3.05144,50.59733],[3.05186,50.59783],[3.05243,50.59846],[3.0526,50.59867],[3.05278,50.59896],[3.05305,50.59927],[3.05334,50.59962],[3.05442,50.59964],[3.055363,50.59958],[3.056307,50.59952],[3.05725,50.59946],[3.05825,50.599255],[3.05925,50.59905],[3.06014,50.598885],[3.06103,50.59872],[3.06118,50.5987],[3.06153,50.59869],[3.062435,50.598735],[3.06334,50.59878],[3.06407,50.59893],[3.06513,50.599115],[3.06619,50.5993],[3.06699,50.59951],[3.06779,50.59972],[3.0687,50.59999],[3.06883,50.60001],[3.06957,50.60003],[3.07036,50.600045],[3.07115,50.60006],[3.07124,50.60008],[3.071815,50.600445],[3.07239,50.60081],[3.07238,50.60081],[3.07295,50.60116],[3.07313,50.6013],[3.073129,50.6013],[3.073379,50.60152],[3.074096,50.602225],[3.07423,50.602335],[3.074298,50.602396],[3.074343,50.602421],[3.07439,50.602433],[3.074645,50.602502],[3.074671,50.602521],[3.074691,50.602566],[3.074712,50.602847],[3.074753,50.602998],[3.074794,50.603094],[3.074974,50.603373],[3.075113,50.603539],[3.07515,50.603584],[3.075364,50.60377],[3.075566,50.60392],[3.075567,50.60392],[3.075837,50.604109],[3.076229,50.604402],[3.076301,50.604444],[3.076513,50.604621],[3.076512,50.604621],[3.076805,50.604861],[3.076848,50.604902],[3.076927,50.605012],[3.077251,50.605282],[3.077427,50.605462],[3.077479,50.605529],[3.077502,50.6056],[3.0775,50.6056],[3.077502,50.6056],[3.077502,50.605673],[3.077452,50.60577],[3.077432,50.605924],[3.076951,50.606709],[3.076665,50.607166],[3.076528,50.607286],[3.076276,50.607697],[3.07626,50.607825],[3.076233,50.607885],[3.075564,50.608981],[3.07556,50.60898],[3.07547,50.60946],[3.07538,50.60965],[3.07532,50.61014],[3.07534,50.61038],[3.07524,50.61106],[3.07515,50.61162],[3.07507,50.61182],[3.074925,50.61271],[3.07478,50.6136],[3.07477,50.61378],[3.07486,50.61418],[3.07487,50.61431],[3.0748,50.61473],[3.07456,50.61545],[3.07436,50.61595],[3.07421,50.61643],[3.074065,50.616935],[3.07392,50.61744],[3.07369,50.61815],[3.07359,50.61827],[3.07352,50.61833],[3.073325,50.618945],[3.07313,50.61956],[3.072885,50.6202],[3.07264,50.62084],[3.072365,50.62139],[3.07209,50.62194],[3.07199,50.62211],[3.07185,50.62226],[3.071855,50.622263],[3.071753,50.62233],[3.07138,50.622527],[3.0692,50.623663],[3.069573,50.623933],[3.06966,50.62401],[3.069716,50.624115],[3.069728,50.624233],[3.069721,50.624368],[3.069688,50.624484],[3.069687,50.624523],[3.069677,50.624879],[3.069659,50.625498],[3.069614,50.627055],[3.069604,50.627419],[3.069594,50.627863],[3.069589,50.628168],[3.06959,50.628201],[3.0698,50.628231],[3.073452,50.628763],[3.074029,50.62884],[3.075445,50.629043],[3.075929,50.629112],[3.076347,50.629171],[3.076738,50.629244],[3.077522,50.629354],[3.077517,50.62941],[3.07751,50.62941],[3.077517,50.62941],[3.077517,50.629419],[3.07762,50.629451],[3.077736,50.62951],[3.077749,50.629541],[3.077755,50.629553],[3.077767,50.629626],[3.077756,50.62971],[3.07775,50.62971],[3.07773,50.62976],[3.077348,50.630525],[3.076965,50.63129],[3.076583,50.632055],[3.0762,50.63282],[3.07609,50.63323],[3.07608,50.63329],[3.076086,50.63329],[3.076086,50.633295],[3.075025,50.633386],[3.074727,50.633412],[3.074588,50.633428],[3.074558,50.633405],[3.074536,50.633389],[3.074448,50.633355],[3.073244,50.633095],[3.070971,50.632605],[3.070831,50.632576],[3.070735,50.632556],[3.07059,50.632525],[3.070556,50.632518],[3.069442,50.632276],[3.068297,50.632027],[3.068262,50.632019],[3.068251,50.63208],[3.06825,50.63208],[3.0681,50.63264],[3.06805,50.633155],[3.068,50.63367],[3.06794,50.63391],[3.06775,50.63443],[3.06857,50.63471],[3.06939,50.6351],[3.06972,50.63529],[3.0703,50.63569],[3.06986,50.63595],[3.06952,50.63621],[3.06942,50.63638],[3.06939,50.63648],[3.0694,50.6366],[3.0694,50.63661],[3.068353,50.636743],[3.067305,50.636875],[3.066258,50.637008],[3.06521,50.63714],[3.0651,50.63712],[3.06497,50.63706],[3.06416,50.63669],[3.06392,50.63675],[3.06335,50.63725],[3.06325,50.63728],[3.0631,50.63726],[3.063096,50.637264],[3.062735,50.637102],[3.06194,50.636764],[3.056782,50.634577],[3.056778,50.634575],[3.058374,50.63369],[3.058455,50.633645],[3.058471,50.633636],[3.058388,50.633586],[3.058779,50.633367],[3.060993,50.632142],[3.063683,50.630653],[3.065007,50.62991],[3.064994,50.629917],[3.065073,50.629966],[3.065712,50.62962],[3.066719,50.629047],[3.066761,50.629023],[3.067437,50.629513],[3.06749,50.62954],[3.06829,50.62961],[3.06836,50.62962],[3.06837,50.62957],[3.06842,50.62949],[3.0685,50.62942],[3.06879,50.62932],[3.06883,50.62927],[3.06883,50.62922],[3.068875,50.62874],[3.06892,50.62826],[3.068919,50.628267],[3.06892,50.62826],[3.06827,50.62825],[3.06827,50.628248],[3.068309,50.628248],[3.068181,50.628255],[3.068074,50.62829],[3.068043,50.628307],[3.066761,50.629023],[3.066693,50.628977],[3.066434,50.62912],[3.064994,50.629917],[3.065073,50.629966],[3.064122,50.630496],[3.06306,50.631089],[3.061913,50.631727],[3.058471,50.633636],[3.058388,50.633586],[3.056879,50.634425],[3.056683,50.634534],[3.056778,50.634575],[3.055934,50.635043],[3.055035,50.635541],[3.051918,50.637275],[3.051754,50.637356],[3.051637,50.637399],[3.051498,50.637464],[3.051253,50.637641],[3.051152,50.637731],[3.051031,50.637896],[3.050765,50.638273],[3.050834,50.638298],[3.050969,50.63836],[3.050957,50.638438],[3.050915,50.638875],[3.050895,50.639088],[3.050873,50.639305]]}}